OID,LocationID,County,City,FullName,OwnerType,FSSName,Name_1,SFHA,In_SFHA,lat,lng,Watershed,logo_url
-1,,,,,,,,1,Yes,29.531625000599998,-95.820313999199996,Lower Brazos,img/p_bridge.png
-1,,,,,,,,0,No,29.531964000300000,-95.826149999600005,Lower Brazos,img/p_bridge.png
-1,,,,,,,,0,No,29.532133000700000,-95.826106000099998,Lower Brazos,img/p_bridge.png
-1,,,,,,,,1,Yes,29.532019001599998,-95.820291999600002,Lower Brazos,img/p_bridge.png
-1,,,,,,,,0,No,29.531950000599998,-95.808218999900006,Lower Brazos,img/p_bridge.png
-1,,,,,,,,0,No,29.531814000800001,-95.803099999799997,Lower Brazos,img/p_bridge.png
-1,,,,,,,,0,No,29.532108000899999,-95.803061000200003,Lower Brazos,img/p_bridge.png
-1,,,,,,,,0,No,29.532108000899999,-95.803061000200003,Lower Brazos,img/p_bridge.png
-1,,,,,,,,0,No,29.532303000999999,-95.808224999399997,Lower Brazos,img/p_bridge.png
-1,,,,,,,,0,No,29.532472000100000,-95.802513999699997,Lower Brazos,img/p_bridge.png
-1,,,,,,,,0,No,29.534278001299999,-95.845724999799998,Lower Brazos,img/p_bridge.png
-1,,,,,,,,0,No,29.534128000799999,-95.776553000099995,Lower Brazos,img/p_bridge.png
-1,,,,,,,,0,No,29.534578000100002,-95.776338999499998,Lower Brazos,img/p_bridge.png
-1,,,,,,,,1,Yes,29.535528001199999,-95.772306000300006,Lower Brazos,img/p_bridge.png
-1,,,,,,,,1,Yes,29.535900001400002,-95.772399999499996,Lower Brazos,img/p_bridge.png
-1,,,,,,,,1,Yes,29.535900001400002,-95.772399999499996,Lower Brazos,img/p_bridge.png
-1,,,,,,,,1,Yes,29.536056000799999,-95.772435999899997,Lower Brazos,img/p_bridge.png
-1,,,,,,,,0,No,29.542492000900001,-95.756760999500003,Lower Brazos,img/p_bridge.png
-1,,,,,,,,0,No,29.546764000100001,-95.746893999899996,Lower Brazos,img/p_bridge.png
-1,,,,,,,,0,No,29.548969000000000,-95.740749999700000,Lower Brazos,img/p_bridge.png
-1,,,,,,,,0,No,29.549225000900002,-95.741127999800000,Lower Brazos,img/p_bridge.png
-1,,,,,,,,0,No,29.554261000600000,-95.724361000599998,Lower Brazos,img/p_bridge.png
-1,,,,,,,,0,No,29.555756000100001,-95.717096999899994,Lower Brazos,img/p_bridge.png
-1,,,,,,,,0,No,29.561292001199998,-95.690541999900006,Lower Brazos,img/p_bridge.png
-1,,,,,,,,0,No,29.561292001199998,-95.690541999900006,Lower Brazos,img/p_bridge.png
-1,,,,,,,,1,Yes,29.566889001300002,-95.669318999699996,Lower Brazos,img/p_bridge.png
-1,,,,,,,,1,Yes,29.568311000800001,-95.668133000500006,Lower Brazos,img/p_bridge.png
-1,,,,,,,,1,Yes,29.568311000800001,-95.668133000500006,Lower Brazos,img/p_bridge.png
-1,,,,,,,,0,No,29.580094000300001,-95.648932999899998,Lower Brazos,img/p_bridge.png
-1,,,,,,,,0,No,29.580560999999999,-95.649472000100005,Lower Brazos,img/p_bridge.png
-1,,,,,,,,0,No,29.581386000500000,-95.647841999999997,Lower Brazos,img/p_bridge.png
-1,,,,,,,,0,No,29.583364001400000,-95.643143999299994,Lower Brazos,img/p_bridge.png
-1,,,,,,,,0,No,29.584153001000001,-95.643878000599997,Lower Brazos,img/p_bridge.png
-1,,,,,,,,1,Yes,29.585147000100001,-95.640255999499999,Lower Brazos,img/p_bridge.png
-1,,,,,,,,1,Yes,29.585664000600001,-95.639866999899994,Lower Brazos,img/p_bridge.png
-1,,,,,,,,1,Yes,29.586525001199998,-95.639602999800005,Lower Brazos,img/p_bridge.png
-1,,,,,,,,1,Yes,29.586869001099998,-95.639628000700000,Lower Brazos,img/p_bridge.png
-1,,,,,,,,0,No,29.588983001199999,-95.634441999900005,Lower Brazos,img/p_bridge.png
-1,,,,,,,,0,No,29.597933001500000,-95.622422000499995,Lower Brazos,img/p_bridge.png
-1,,,,,,,,0,No,29.759681001299999,-96.170602999699994,Lower Brazos,img/p_bridge.png
-1,,,,,,,,0,No,29.762797001399999,-96.185032999900002,Lower Brazos,img/p_bridge.png
-1,,,,,,,,0,No,29.763003000200001,-96.184889000100000,Lower Brazos,img/p_bridge.png
-1,,,,,,,,1,Yes,29.762383000500002,-96.155877999300003,Lower Brazos,img/p_bridge.png
-1,,,,,,,,1,Yes,29.763231001200001,-96.156613999900003,Lower Brazos,img/p_bridge.png
-1,,,,,,,,1,Yes,29.763458000600000,-96.156672000000000,Lower Brazos,img/p_bridge.png
-1,,,,,,,,1,Yes,29.763458000600000,-96.156672000000000,Lower Brazos,img/p_bridge.png
-1,,,,,,,,0,No,29.764397000599999,-96.152741999400007,Lower Brazos,img/p_bridge.png
-1,,,,,,,,0,No,29.764619000200000,-96.152842000199996,Lower Brazos,img/p_bridge.png
-1,,,,,,,,0,No,29.765044001300001,-96.150574999900002,Lower Brazos,img/p_bridge.png
-1,,,,,,,,0,No,29.765272001000000,-96.150630999399993,Lower Brazos,img/p_bridge.png
-1,,,,,,,,0,No,29.773136001299999,-96.133961000100001,Lower Brazos,img/p_bridge.png
-1,,,,,,,,0,No,29.773369001300001,-96.134117000000003,Lower Brazos,img/p_bridge.png
-1,,,,,,,,0,No,29.771225001299999,-96.055657999600001,Lower Brazos,img/p_bridge.png
-1,,,,,,,,1,Yes,29.771169001099999,-96.035386000000003,Lower Brazos,img/p_bridge.png
-1,,,,,,,,1,Yes,29.771383000800000,-96.035457999599998,Lower Brazos,img/p_bridge.png
-1,,,,,,,,0,No,29.773347000800001,-96.075846999700005,Lower Brazos,img/p_bridge.png
-1,,,,,,,,1,Yes,29.772022001400000,-96.032771999800005,Lower Brazos,img/p_bridge.png
-1,,,,,,,,1,Yes,29.772294000799999,-96.030767000200001,Lower Brazos,img/p_bridge.png
-1,,,,,,,,1,Yes,29.772294000799999,-96.030767000200001,Lower Brazos,img/p_bridge.png
-1,,,,,,,,1,Yes,29.772483000699999,-96.030822000499995,Lower Brazos,img/p_bridge.png
-1,,,,,,,,1,Yes,29.772922000900000,-96.028188999700006,Lower Brazos,img/p_bridge.png
-1,,,,,,,,1,Yes,29.772922000900000,-96.028188999700006,Lower Brazos,img/p_bridge.png
-1,,,,,,,,1,Yes,29.773086000199999,-96.028267000100001,Lower Brazos,img/p_bridge.png
-1,,,,,,,,1,Yes,29.773489001300000,-96.026572000000002,Lower Brazos,img/p_bridge.png
-1,,,,,,,,0,No,29.776219001600001,-96.109069000399998,Lower Brazos,img/p_bridge.png
-1,,,,,,,,0,No,29.776167000899999,-96.103391999899998,Lower Brazos,img/p_bridge.png
-1,,,,,,,,0,No,29.776397000300001,-96.103391999899998,Lower Brazos,img/p_bridge.png
-1,,,,,,,,1,Yes,29.774789000999998,-96.020239000800004,Lower Brazos,img/p_bridge.png
-1,,,,,,,,1,Yes,29.774986001399999,-96.020317000299997,Lower Brazos,img/p_bridge.png
-1,,,,,,,,1,Yes,29.775717001000000,-96.016366999499994,Lower Brazos,img/p_bridge.png
-1,,,,,,,,1,Yes,29.775717001000000,-96.016366999499994,Lower Brazos,img/p_bridge.png
-1,,,,,,,,1,Yes,29.775933000999999,-96.016431000500006,Lower Brazos,img/p_bridge.png
-1,,,,,,,,1,Yes,29.776956000900000,-96.011585999900007,Lower Brazos,img/p_bridge.png
-1,,,,,,,,1,Yes,29.777258001000000,-96.011330999899997,Lower Brazos,img/p_bridge.png
-1,,,,,,,,1,Yes,29.777831000500001,-96.007966999600001,Lower Brazos,img/p_bridge.png
-1,,,,,,,,1,Yes,29.778056000199999,-96.008018999399994,Lower Brazos,img/p_bridge.png
-1,,,,,,,,1,Yes,29.778692001100001,-96.004396999899996,Lower Brazos,img/p_bridge.png
-1,,,,,,,,1,Yes,29.778908000900000,-96.004474999999999,Lower Brazos,img/p_bridge.png
-1,,,,,,,,0,No,29.778914000800000,-95.967521999799999,Lower Brazos,img/p_bridge.png
-1,,,,,,,,0,No,29.778783000699999,-95.951294000499999,Lower Brazos,img/p_bridge.png
-1,,,,,,,,0,No,29.779008000800001,-95.951293999699999,Lower Brazos,img/p_bridge.png
-1,,,,,,,,1,Yes,29.778717000200000,-95.935707999399995,Lower Brazos,img/p_bridge.png
-1,,,,,,,,1,Yes,29.778856000299999,-95.935638999899993,Lower Brazos,img/p_bridge.png
-1,,,,,,,,1,Yes,29.780358000100001,-95.979058000099997,Lower Brazos,img/p_bridge.png
-1,,,,,,,,1,Yes,29.780358000100001,-95.979058000099997,Lower Brazos,img/p_bridge.png
-1,,,,,,,,1,Yes,29.780753000400001,-95.979096999800007,Lower Brazos,img/p_bridge.png
-1,,,,,,,,1,Yes,29.782408000499998,-95.986539000600004,Lower Brazos,img/p_bridge.png
-1,,,,,,,,1,Yes,29.782625000900001,-95.983961000199997,Lower Brazos,img/p_bridge.png
-1,,,,,,,,1,Yes,29.782675000000001,-95.980635999599997,Lower Brazos,img/p_bridge.png
-1,,,,,,,,1,Yes,29.782675000000001,-95.980635999599997,Lower Brazos,img/p_bridge.png
-1,,,,,,,,1,Yes,29.782983001000002,-95.987227999300003,Lower Brazos,img/p_bridge.png