NAME,ADDRESS,CITY,STATE,ZIP,TYPE,COUNTY,EVAC_CAP,POST_CAP,SFHA,In_SFHA,lat,lng,Watershed,logo_url
AMERICAN LEGION POST 442,1630 MEYER,SEALY,TX,77474,EVAC,AUSTIN,305,152,0,No,29.76730652,-96.15337145,Lower Brazos,img/shelters.png
ST. JOHN'S LUTHERAN CHURCH,211 HICKORY ROAD,NEW ULM,TX,78950,POST,AUSTIN,195,97,0,No,29.89410103,-96.49105179,Lower Brazos,img/shelters.png
CAT SPRING AGRICULTURAL HALL,13035 HALL RD,CAT SPRING,TX,78933,BOTH,AUSTIN,250,125,0,No,29.86459907,-96.3226584,Lower Brazos,img/shelters.png
STS PETER AND PAUL CATHLIC CHURCH,936 SOUTH FRONT ST,BELLVILLE,TX,77418,POST,AUSTIN,0,74,0,No,29.9375017,-96.25207253,Lower Brazos,img/shelters.png
FIRST BAPTIST CHURCH,707 8TH STREET,SEALY,TX,77474,EVAC,AUSTIN,200,100,0,No,29.77523648,-96.16112098,Lower Brazos,img/shelters.png
SACRED HEART CATHOLIC CHURCH - FAMILY LIFE CENTER,507 S FOURTH ST,RICHMOND,TX,77469,POST,FORT BEND,300,150,0,No,29.58047658,-95.76027789,Lower Brazos,img/shelters.png
GREATER POWER BAPTIST CHURCH,6325 FM 2218,RICHMOND,TX,77469,BOTH,FORT BEND,200,100,0,No,29.49220354,-95.80293957,Lower Brazos,img/shelters.png
W.E. HILL COMMUNITY CENTER,1000 MAIN STREET,SEALY,TX,77474,EVAC,AUSTIN,188,94,0,No,29.77937924,-96.16735883,Lower Brazos,img/shelters.png
WEST COLUMBIA ELEMENTARY SCHOOL,711 SOUTH GRAY,WEST COLUMBIA,TX,77486,EVAC,BRAZORIA,300,150,0,No,29.13525816,-95.64443775,Lower Brazos,img/shelters.png
LAMAR CONSOLIDATED INDEPENDENT SCHOOL DISTRICT,3911 AVENUE I,ROSENBERG,TX,77471,EVAC,FORT BEND,600,300,0,No,29.55850868,-95.786494,Lower Brazos,img/shelters.png
FIRST BAPTIST CHURCH,502 S FIFTH ST,RICHMOND,TX,77469,EVAC,FORT BEND,100,150,0,No,29.57996276,-95.76176598,Lower Brazos,img/shelters.png
FIREMAN'S HALL,16522 HWY 159 WEST,INDUSTRY,TX,78944,EVAC,AUSTIN,312,0,0,No,29.97259239,-96.49710131,Lower Brazos,img/shelters.png
ST. JOHN'S EPISCOPAL CHURCH,515 MEYER ST,SEALY,TX,77474,EVAC,AUSTIN,64,32,0,No,29.77811241,-96.15696165,Lower Brazos,img/shelters.png
FIRST BAPTIST CHURCH HEMPSTEAD,445 MAIN ST,HEMPSTEAD,TX,77445,POST,WALLER,225,112,0,No,30.094996,-96.07235004,Lower Brazos,img/shelters.png
WALLER COUNTY FAIRGROUNDS,FM 359 SOUTH,HEMPSTEAD,TX,77445,BOTH,WALLER,400,200,0,No,30.0783017,-96.03789685,Lower Brazos,img/shelters.png
ST. JOHN'S UNITED CHURCH OF CHRIST,516 COLORADO ST,BURTON,TX,77835,POST,WASHINGTON,450,225,0,No,30.18354186,-96.5939919,Lower Brazos,img/shelters.png
CURRY'S CHAPEL BAPTIST CHURCH,4716  1/2 SOUTH ST,BROOKSHIRE,TX,77423,EVAC,WALLER,323,161,0,No,29.78240571,-95.96228342,Lower Brazos,img/shelters.png
SIMONTON COMMUNITY CHURCH,9703 FM 1489,SIMONTON,TX,77476,EVAC,FORT BEND,300,150,1,Yes,29.6750305,-95.97657519,Lower Brazos,img/shelters.png
PINE ISLAND BAPTIST CHURCH,36573 BRUMLOW RD,HEMPSTEAD,TX,77445,BOTH,WALLER,150,75,0,No,30.05804098,-96.01052224,Lower Brazos,img/shelters.png
FIRST COLONY CONFERENCE CENTER,3232 AUSTIN PARKWAY,SUGAR LAND,TX,77479,BOTH,FORT BEND,75,37,0,No,29.57449718,-95.60630557,Lower Brazos,img/shelters.png
FIRST UNITED METHODIST CHURCH,707 COOPER ST,BROOKSHIRE,TX,77423,POST,WALLER,100,50,0,No,29.78353608,-95.95423163,Lower Brazos,img/shelters.png
KC HALL HEMPSTEAD,22892 MACK WASHINGTON LN,HEMPSTEAD,TX,77445,BOTH,WALLER,400,200,0,No,30.11572033,-96.04524536,Lower Brazos,img/shelters.png
THOMPSON MUNICIPAL BUILDING,134 OILFIELD ROAD,THOMPSONS,TX,77481,EVAC,FORT BEND,150,0,1,Yes,29.49652499,-95.58552125,Lower Brazos,img/shelters.png
FIRST ASSEMBLY OF GOD,2512 AVENUE N,ROSENBERG,TX,77471,BOTH,FORT BEND,100,50,0,No,29.55137489,-95.80062084,Lower Brazos,img/shelters.png
THOMPSONS CITY HALL COMMUNITY CENTER,520 THOMPSONS OILFIELD RD,THOMPSONS,TX,77481,BOTH,FORT BEND,87,75,1,Yes,29.49079525,-95.58590435,Lower Brazos,img/shelters.png
KNIGHTS OF COLUMBUS HALL,1390 HIGHWAY 90 W,SEALY,TX,77474,BOTH,AUSTIN,100,50,0,No,29.77006812,-96.16562545,Lower Brazos,img/shelters.png
ST. JOHN LUTHERAN CHURCH,520 NORTH HOLLAND,BELLVILLE,TX,77418,EVAC,AUSTIN,272,136,0,No,29.95560624,-96.25564114,Lower Brazos,img/shelters.png
ROYAL HIGH SCHOOL,34499 ROYAL ROAD,BROOKSHIRE,TX,77423,BOTH,WALLER,100,50,0,No,29.80758981,-95.96156362,Lower Brazos,img/shelters.png
BROOKSHIRE CIVIC CENTER,4010 4TH STREET,BROOKSHIRE,TX,77423,BOTH,WALLER,2,1,0,No,29.78840093,-95.9530328,Lower Brazos,img/shelters.png
