OID,LocationID,County,City,FullName,OwnerType,FSSName,Name_1,SFHA,In_SFHA,lat,lng,Watershed,logo_url
-1,,HARRIS,HOUSTON,,,,,0,No,29.646370138999998,-95.457580188999998,,img/hospitals.png
-1,,FORT BEND,STAFFORD,,,,,0,No,29.646847509000001,-95.588277012999995,,img/hospitals.png
-1,,HARRIS,HOUSTON,,,,,0,No,29.651736354000001,-95.477738203000001,,img/hospitals.png
-1,,HARRIS,PASADENA,,,,,0,No,29.659121930000001,-95.177956514000002,,img/hospitals.png
-1,,HARRIS,PASADENA,,,,,0,No,29.661060268000000,-95.183814698999996,,img/hospitals.png
-1,,HARRIS,HOUSTON,,,,,0,No,29.690588430999998,-95.401081204999997,,img/hospitals.png
-1,,HARRIS,HOUSTON,,,,,0,No,29.692395762000000,-95.400757361000004,,img/hospitals.png
-1,,HARRIS,HOUSTON,,,,,0,No,29.692718069000001,-95.521153107999993,,img/hospitals.png
-1,,HARRIS,HOUSTON,,,,,0,No,29.692950217000000,-95.402404231000006,,img/hospitals.png
-1,,FORT BEND,RICHMOND,,,,,0,No,29.694340223000001,-95.761040555999998,,img/hospitals.png
-1,,HARRIS,HOUSTON,,,,,0,No,29.694738910000002,-95.317596577000003,,img/hospitals.png
-1,,HARRIS,HOUSTON,,,,,0,No,29.699765749000001,-95.388773444999998,,img/hospitals.png
-1,,HARRIS,HOUSTON,,,,,0,No,29.700211936999999,-95.409068594999994,,img/hospitals.png
-1,,HARRIS,PASADENA,,,,,0,No,29.702654481000000,-95.200311229999997,,img/hospitals.png
-1,,HARRIS,HOUSTON,,,,,0,No,29.704310666000001,-95.405771447000006,,img/hospitals.png
-1,,HARRIS,HOUSTON,,,,,0,No,29.707031355000002,-95.397077171000007,,img/hospitals.png
-1,,HARRIS,GRANBURY,,,,,0,No,29.707731163999998,-95.400444972000003,,img/hospitals.png
-1,,HARRIS,HOUSTON,,,,,0,No,29.707778479000002,-95.401652631999994,,img/hospitals.png
-1,,HARRIS,HOUSTON,,,,,0,No,29.707960797999998,-95.473915826999999,,img/hospitals.png
-1,,HARRIS,HOUSTON,,,,,0,No,29.707982213000001,-95.473416139999998,,img/hospitals.png
-1,,HARRIS,HOUSTON,,,,,0,No,29.709251365000000,-95.498083997999998,,img/hospitals.png
-1,,HARRIS,HOUSTON,,,,,0,No,29.709336798999999,-95.394038964999993,,img/hospitals.png
-1,,HARRIS,BELLAIRE,,,,,0,No,29.709977394999999,-95.462671301000000,,img/hospitals.png
-1,,HARRIS,HOUSTON,,,,,0,No,29.710523140999999,-95.398938881999996,,img/hospitals.png
-1,,HARRIS,HOUSTON,,,,,0,No,29.710982362999999,-95.394551699999994,,img/hospitals.png
-1,,HARRIS,HOUSTON,,,,,0,No,29.711039078999999,-95.359806415999998,,img/hospitals.png
-1,,HARRIS,HOUSTON,,,,,0,No,29.712016808000001,-95.374423750000005,,img/hospitals.png
-1,,HARRIS,HOUSTON,,,,,0,No,29.712850427999999,-95.399170225000006,,img/hospitals.png
-1,,HARRIS,HOUSTON,,,,,0,No,29.714551173000000,-95.396282025999994,,img/hospitals.png
-1,,HARRIS,HOUSTON,,,,,0,No,29.718489902000002,-95.382775527999996,,img/hospitals.png
-1,,HARRIS,HOUSTON,,,,,0,No,29.718489902000002,-95.382775527999996,,img/hospitals.png
-1,,HARRIS,HOUSTON,,,,,0,No,29.722555669999998,-95.387531895999999,,img/hospitals.png
-1,,HARRIS,HOUSTON,,,,,0,No,29.723239233000001,-95.387022693999995,,img/hospitals.png
-1,,HARRIS,BELLAIRE,,,,,0,No,29.723805423999998,-95.461219040000003,,img/hospitals.png
-1,,HARRIS,HOUSTON,,,,,0,No,29.724179524000000,-95.383959003000001,,img/hospitals.png
-1,,HARRIS,HOUSTON,,,,,0,No,29.729341656999999,-95.594483617999998,,img/hospitals.png
-1,,HARRIS,HOUSTON,,,,,0,No,29.730867641000000,-95.445097113000003,,img/hospitals.png
-1,,HARRIS,HOUSTON,,,,,0,No,29.730918929000001,-95.360852859999994,,img/hospitals.png
-1,,HARRIS,HOUSTON,,,,,0,No,29.732219014999998,-95.486830635999993,,img/hospitals.png
-1,,HARRIS,HOUSTON,,,,,0,No,29.732450146000001,-95.579984722000006,,img/hospitals.png
-1,,HARRIS,HOUSTON,,,,,0,No,29.746846917999999,-95.365896890000002,,img/hospitals.png
-1,,HARRIS,HOUSTON,,,,,0,No,29.748116126999999,-95.366148139000003,,img/hospitals.png
-1,,HARRIS,HOUSTON,,,,,0,No,29.748766882000002,-95.382236117000005,,img/hospitals.png
-1,,HARRIS,BAYTOWN,,,,,0,No,29.769116266000001,-94.979716605999997,,img/hospitals.png
-1,,HARRIS,HOUSTON,,,,,0,No,29.770633530000001,-95.200291023000005,,img/hospitals.png
-1,,HARRIS,BAYTOWN,,,,,0,No,29.771962102000000,-94.981344156999995,,img/hospitals.png
-1,,HARRIS,HOUSTON,,,,,0,No,29.772366973000000,-95.193346658999999,,img/hospitals.png
-1,,HARRIS,CHANNELVIEW,,,,,0,No,29.774553764000000,-95.144655783000005,,img/hospitals.png
-1,,HARRIS,KATY,,,,,0,No,29.775765475000000,-95.745799332999994,,img/hospitals.png
-1,,HARRIS,KATY,,,,,0,No,29.776797049999999,-95.716844164999998,,img/hospitals.png
-1,,HARRIS,KATY,,,,,0,No,29.777964097000002,-95.748540472000002,,img/hospitals.png
-1,,HARRIS,GONZALES,,,,,0,No,29.781447469000000,-95.546759684999998,,img/hospitals.png
-1,,HARRIS,HOUSTON,,,,,0,No,29.787156622000001,-95.697828078000001,,img/hospitals.png
-1,,HARRIS,KATY,,,,,0,No,29.787310994999999,-95.786254532000001,,img/hospitals.png
-1,,HARRIS,HOUSTON,,,,,0,No,29.787756246000001,-95.693050119999995,,img/hospitals.png
-1,,HARRIS,HOUSTON,,,,,0,No,29.789354417999999,-95.566875648000007,,img/hospitals.png
-1,,HARRIS,HOUSTON,,,,,0,No,29.803671623000000,-95.404146174999994,,img/hospitals.png
-1,,HARRIS,HOUSTON,,,,,0,No,29.803998107999998,-95.508733465999995,,img/hospitals.png
-1,,HARRIS,HOUSTON,,,,,0,No,29.804272337000000,-95.508626559000007,,img/hospitals.png
-1,,HARRIS,HOUSTON,,,,,0,No,29.809260392999999,-95.431132665000007,,img/hospitals.png
-1,,HARRIS,HOUSTON,,,,,0,No,29.810735657999999,-95.430335545999995,,img/hospitals.png
-1,,HARRIS,HOUSTON,,,,,0,No,29.811933277000001,-95.311881702999997,,img/hospitals.png
-1,,HARRIS,HOUSTON,,,,,0,No,29.823425559000000,-95.546310333999998,,img/hospitals.png
-1,,HARRIS,HOUSTON,,,,,0,No,29.847812773000001,-95.408457769999998,,img/hospitals.png
-1,,HARRIS,HOUSTON,,,,,0,No,29.867380185999998,-95.408003780000001,,img/hospitals.png
-1,,HARRIS,HOUSTON,,,,,0,No,29.871493219000001,-95.342112490999995,,img/hospitals.png
-1,,HARRIS,HOUSTON,,,,,0,No,29.920337957000001,-95.613409610000005,,img/hospitals.png
-1,,HARRIS,HOUSTON,,,,,0,No,29.924409621999999,-95.588246124999998,,img/hospitals.png
-1,,HARRIS,CYPRESS,,,,,0,No,29.925674850000000,-95.631762225000003,,img/hospitals.png
-1,,HARRIS,HOUSTON,,,,,0,No,29.927129733000001,-95.589698962000000,,img/hospitals.png
-1,,HARRIS,HOUSTON,,,,,0,No,29.966468770999999,-95.551144526000002,,img/hospitals.png
-1,,HARRIS,HUMBLE,,,,,0,No,29.986359724000000,-95.278976215000000,,img/hospitals.png
-1,,HARRIS,HUMBLE,,,,,0,No,29.993735216000001,-95.277329297999998,,img/hospitals.png
-1,,HARRIS,HUMBLE,,,,,0,No,29.995512041000001,-95.276128889000006,,img/hospitals.png
-1,,HARRIS,HUMBLE,,,,,0,No,29.998675470999999,-95.276222657000005,,img/hospitals.png
-1,,HARRIS,HOUSTON,,,,,0,No,30.014287894999999,-95.440687017000002,,img/hospitals.png
-1,,HARRIS,HOUSTON,,,,,0,No,30.018895697000001,-95.443944991999999,,img/hospitals.png