OID,LocationID,County,City,FullName,OwnerType,FSSName,Name_1,SFHA,In_SFHA,lat,lng,Watershed,logo_url
-1,,FORT BEND,MISSOURI CITY,,,,FORT BEND COUNTY CONSTABLE - PRECINCT 2,0,No,29.617908199999999,-95.536740899999998,Buffalo-San Jacinto,img/police.png
-1,,FORT BEND,STAFFORD,,,,FORT BEND INDEPENDENT SCHOOL DISTRICT POLICE DEPARTMENT,0,No,29.624480999999999,-95.565454900000006,Buffalo-San Jacinto,img/police.png
-1,,FORT BEND,MEADOWS PLACE,,,,MEADOWS PLACE POLICE DEPARTMENT,0,No,29.648489699999999,-95.578704999999999,Buffalo-San Jacinto,img/police.png
-1,,HARRIS,HOUSTON,,,,HOUSTON POLICE DEPARTMENT - FONDREN DIVISION,0,No,29.657534900000002,-95.510030000000000,Buffalo-San Jacinto,img/police.png
-1,,HARRIS,HOUSTON,,,,HOUSTON POLICE DEPARTMENT - AIRPORT DIVISION - HOBBY,0,No,29.655266500000000,-95.278426499999995,Buffalo-San Jacinto,img/police.png
-1,,HARRIS,HOUSTON,,,,HOUSTON POLICE DEPARTMENT - SOUTHEAST DIVISION,0,No,29.657419999999998,-95.316887699999995,Buffalo-San Jacinto,img/police.png
-1,,HARRIS,SOUTH HOUSTON,,,,SOUTH HOUSTON POLICE DEPARTMENT,0,No,29.664881600000001,-95.238827999999998,Buffalo-San Jacinto,img/police.png
-1,,HARRIS,PASADENA,,,,PASADENA INDEPENDENT SCHOOL DISTRICT POLICE DEPARTMENT,0,No,29.678078500000002,-95.191668500000006,Buffalo-San Jacinto,img/police.png
-1,,HARRIS,HOUSTON,,,,HOUSTON POLICE DEPARTMENT - SOUTHWEST DIVISION,1,Yes,29.688562200000000,-95.451459999999997,Buffalo-San Jacinto,img/police.png
-1,,HARRIS,HOUSTON,,,,HOUSTON BAPTIST UNIVERSITY POLICE DEPARTMENT,0,No,29.693999500000000,-95.515255400000001,Buffalo-San Jacinto,img/police.png
-1,,HARRIS,HOUSTON,,,,UNIVERSITY OF TEXAS AT HOUSTON POLICE DEPARTMENT,0,No,29.691956500000000,-95.397999299999995,Buffalo-San Jacinto,img/police.png
-1,,HARRIS,PASADENA,,,,PASADENA CITY MARSHALS OFFICE,0,No,29.691239899999999,-95.203570099999993,Buffalo-San Jacinto,img/police.png
-1,,HARRIS,HOUSTON,,,,HARRIS COUNTY CONSTABLE - PRECINCT 7,0,No,29.696248000000001,-95.335299100000000,Buffalo-San Jacinto,img/police.png
-1,,HARRIS,BELLAIRE,,,,BELLAIRE POLICE DEPARTMENT,1,Yes,29.702265600000000,-95.469035500000004,Buffalo-San Jacinto,img/police.png
-1,,HARRIS,BELLAIRE,,,,BELLAIRE FIRE MARSHALS OFFICE - ARSON INVESTIGATION,1,Yes,29.702248000000001,-95.467468900000000,Buffalo-San Jacinto,img/police.png
-1,,HARRIS,PASADENA,,,,PASADENA POLICE DEPARTMENT / PASADENA CITY JAIL,0,No,29.693441499999999,-95.196047199999995,Buffalo-San Jacinto,img/police.png
-1,,HARRIS,HOUSTON,,,,ALIEF INDEPENDENT SCHOOL DISTRICT POLICE DEPARTMENT,0,No,29.709988899999999,-95.592235799999997,Buffalo-San Jacinto,img/police.png
-1,,HARRIS,HOUSTON,,,,TEXAS MEDICAL CENTER POLICE DEPARTMENT,0,No,29.703137099999999,-95.383029399999998,Buffalo-San Jacinto,img/police.png
-1,,HARRIS,HOUSTON,,,,ALIEF INDEPENDENT SCHOOL DISTRICT POLICE DEPARTMENT,0,No,29.711144200000000,-95.596766400000007,Buffalo-San Jacinto,img/police.png
-1,,HARRIS,HOUSTON,,,,HOUSTON INDEPENDENT SCHOOL DISTRICT POLICE DEPARTMENT,0,No,29.703728099999999,-95.365539999999996,Buffalo-San Jacinto,img/police.png
-1,,HARRIS,HOUSTON,,,,UNIVERSITY OF TEXAS AT HOUSTON POLICE DEPARTMENT,1,Yes,29.707109800000001,-95.396916500000003,Buffalo-San Jacinto,img/police.png
-1,,HARRIS,HOUSTON,,,,TEXAS WOMANS UNIVERSITY DEPARTMENT OF PUBLIC SAFETY HOUSTON CAMPUS,0,No,29.710876100000000,-95.397435599999994,Buffalo-San Jacinto,img/police.png
-1,,HARRIS,HOUSTON,,,,SOUTHSIDE PLACE POLICE DEPARTMENT,1,Yes,29.714360200000002,-95.433568199999996,Buffalo-San Jacinto,img/police.png
-1,,HARRIS,HOUSTON,,,,RICE UNIVERSITY POLICE DEPARTMENT,0,No,29.713808000000000,-95.407020799999998,Buffalo-San Jacinto,img/police.png
-1,,HARRIS,HOUSTON,,,,WEST UNIVERSITY PLACE POLICE DEPARTMENT,0,No,29.714973700000002,-95.438295299999993,Buffalo-San Jacinto,img/police.png
-1,,HARRIS,PASADENA,,,,HARRIS COUNTY CONSTABLE - PRECINCT 2,0,No,29.712832500000001,-95.211302500000002,Buffalo-San Jacinto,img/police.png
-1,,HARRIS,HOUSTON,,,,HOUSTON POLICE DEPARTMENT - WESTSIDE DIVISION,1,Yes,29.727471099999999,-95.604889999999997,Buffalo-San Jacinto,img/police.png
-1,,HARRIS,HOUSTON,,,,TEXAS SOUTHERN UNIVERSITY POLICE DEPARTMENT,0,No,29.718854499999999,-95.359399800000006,Buffalo-San Jacinto,img/police.png
-1,,HARRIS,HOUSTON,,,,UNIVERSITY OF HOUSTON DEPARTMENT OF PUBLIC SAFETY,0,No,29.719907200000002,-95.351160800000002,Buffalo-San Jacinto,img/police.png
-1,,HARRIS,HOUSTON,,,,PORT OF HOUSTON AUTHORITY,0,No,29.729435899999999,-95.267947699999993,Buffalo-San Jacinto,img/police.png
-1,,HARRIS,HOUSTON,,,,PORT OF HOUSTON AUTHORITY,0,No,29.729738900000001,-95.272464900000003,Buffalo-San Jacinto,img/police.png
-1,,HARRIS,HOUSTON,,,,HOUSTON POLICE DEPARTMENT - EASTSIDE DIVISION,0,No,29.734376000000001,-95.290117800000004,Buffalo-San Jacinto,img/police.png
-1,,HARRIS,HOUSTON,,,,UNIVERSITY OF SAINT THOMAS SECURITY POLICE DEPARTMENT,0,No,29.738291600000000,-95.394243900000006,Buffalo-San Jacinto,img/police.png
-1,,HARRIS,GALENA PARK,,,,GALENA PARK POLICE DEPARTMENT,0,No,29.732875300000000,-95.245925700000001,Buffalo-San Jacinto,img/police.png
-1,,HARRIS,HOUSTON,,,,HOUSTON COMMUNITY COLLEGE POLICE,0,No,29.742081899999999,-95.377160399999994,Buffalo-San Jacinto,img/police.png
-1,,HARRIS,HOUSTON,,,,HOUSTON POLICE DEPARTMENT - SOUTH CENTRAL DIVISION,0,No,29.742822600000000,-95.362739000000005,Buffalo-San Jacinto,img/police.png
-1,,HARRIS,HOUSTON,,,,HARRIS COUNTY CONSTABLE - PRECINCT 6,0,No,29.750398799999999,-95.324807600000000,Buffalo-San Jacinto,img/police.png
-1,,HARRIS,HOUSTON,,,,HOUSTON POLICE DEPARTMENT - HEADQUARTERS,0,No,29.755767500000001,-95.367330999999993,Buffalo-San Jacinto,img/police.png
-1,,HARRIS,HOUSTON,,,,MEMORIAL VILLAGES POLICE DEPARTMENT,0,No,29.762055600000000,-95.538797200000005,Buffalo-San Jacinto,img/police.png
-1,,HARRIS,HOUSTON,,,,HARRIS COUNTY CONSTABLE - PRECINCT 1 DOWNTOWN OFFICE,0,No,29.759529100000002,-95.358728700000000,Buffalo-San Jacinto,img/police.png
-1,,HARRIS,HOUSTON,,,,HARRIS COUNTY SHERIFFS OFFICE,0,No,29.763563800000000,-95.356131899999994,Buffalo-San Jacinto,img/police.png
-1,,HARRIS,HOUSTON,,,,TEXAS DEPARTMENT OF CRIMINAL JUSTICE - JOE KEGANS UNIT,0,No,29.764296999999999,-95.355322599999994,Buffalo-San Jacinto,img/police.png
-1,,HARRIS,HOUSTON,,,,HOUSTON POLICE DEPARTMENT - CENTRAL DIVISION,1,Yes,29.765299500000001,-95.370572400000000,Buffalo-San Jacinto,img/police.png
-1,,HARRIS,HOUSTON,,,,UNIVERSITY OF HOUSTON DOWNTOWN POLICE DEPARTMENT,1,Yes,29.765891900000000,-95.359255200000007,Buffalo-San Jacinto,img/police.png
-1,,HARRIS,HOUSTON,,,,HOUSTON METROPOLITAN TRANSIT AUTHORITY POLICE,0,No,29.767195300000001,-95.355945100000000,Buffalo-San Jacinto,img/police.png
-1,,HARRIS,BAYTOWN,,,,BAYTOWN CITY MARSHALS OFFICE,0,No,29.755914600000001,-94.962733600000007,Buffalo-San Jacinto,img/police.png
-1,,HARRIS,BAYTOWN,,,,BAYTOWN POLICE DEPARTMENT,0,No,29.756214600000000,-94.963109000000003,Buffalo-San Jacinto,img/police.png
-1,,HARRIS,HOUSTON,,,,JACINTO CITY POLICE DEPARTMENT,0,No,29.767852200000000,-95.244079200000002,Buffalo-San Jacinto,img/police.png
-1,,HARRIS,HOUSTON,,,,HARRIS COUNTY CONSTABLE - PRECINCT 5,0,No,29.783944200000001,-95.682553499999997,Buffalo-San Jacinto,img/police.png
-1,,HARRIS,HOUSTON,,,,HEDWIG VILLAGE POLICE DEPARTMENT,0,No,29.783049099999999,-95.510489699999994,Buffalo-San Jacinto,img/police.png
-1,,HARRIS,HOUSTON,,,,SPRING VALLEY POLICE DEPARTMENT,0,No,29.787365600000001,-95.515459699999994,Buffalo-San Jacinto,img/police.png
-1,,HARRIS,BAYTOWN,,,,HARRIS COUNTY CONSTABLE - PRECINCT 3,0,No,29.768699900000001,-94.971122800000003,Buffalo-San Jacinto,img/police.png
-1,,HARRIS,KATY,,,,KATY POLICE DEPARTMENT,0,No,29.801937700000000,-95.819895099999997,Buffalo-San Jacinto,img/police.png
-1,,HARRIS,HOUSTON,,,,HOUSTON FIRE AND INVESTIGATION DIVISION,0,No,29.791211300000001,-95.431286900000003,Buffalo-San Jacinto,img/police.png
-1,,HARRIS,KATY,,,,KATY INDEPENDENT SCHOOL DISTRICT POLICE DEPARTMENT,0,No,29.802449800000002,-95.750386000000006,Buffalo-San Jacinto,img/police.png
-1,,HARRIS,HOUSTON,,,,SPRING BRANCH INDEPENDENT SCHOOL DISTRICT POLICE DEPARTMENT,0,No,29.798059899999998,-95.510768799999994,Buffalo-San Jacinto,img/police.png
-1,,HARRIS,HOUSTON,,,,HARRIS COUNTY CONSTABLE - PRECINCT 3 PATROL OFFICE,0,No,29.804701699999999,-95.193275999999997,Buffalo-San Jacinto,img/police.png
-1,,HARRIS,HOUSTON,,,,HARRIS COUNTY SHERIFFS OFFICE DIVISION 3 - WALLISVILLE,0,No,29.804702299999999,-95.193280599999994,Buffalo-San Jacinto,img/police.png
-1,,HARRIS,HOUSTON,,,,SAN JACINTO COLLEGE DISTRICT POLICE DEPARTMENT NORTH CAMPUS,0,No,29.810190299999999,-95.180053099999995,Buffalo-San Jacinto,img/police.png
-1,,HARRIS,HOUSTON,,,,HARRIS COUNTY SHERIFFS OFFICE DIVISION 4 - CLAY ROAD,0,No,29.834043800000000,-95.655896600000005,Buffalo-San Jacinto,img/police.png
-1,,HARRIS,HOUSTON,,,,HOUSTON POLICE DEPARTMENT - NORTHEAST DIVISION,0,No,29.832251599999999,-95.273297600000006,Buffalo-San Jacinto,img/police.png
-1,,HARRIS,HOUSTON,,,,HOUSTON POLICE DEPARTMENT - NORTHWEST DIVISION,0,No,29.857037399999999,-95.539750900000001,Buffalo-San Jacinto,img/police.png
-1,,HARRIS,HOUSTON,,,,HARRIS COUNTY CONSTABLE - PRECINCT 1 ANNEX 31 OFFICE,1,Yes,29.867526699999999,-95.411902900000001,Buffalo-San Jacinto,img/police.png
-1,,HARRIS,HOUSTON,,,,NORTH FOREST INDEPENDENT SCHOOL DISTRICT POLICE DEPARTMENT,1,Yes,29.870849400000001,-95.267386200000004,Buffalo-San Jacinto,img/police.png
-1,,HARRIS,HOUSTON,,,,HOUSTON POLICE DEPARTMENT - NORTH DIVISION,0,No,29.879384800000000,-95.446839400000002,Buffalo-San Jacinto,img/police.png
-1,,HARRIS,HOUSTON,,,,JERSEY VILLAGE POLICE DEPARTMENT,0,No,29.883836299999999,-95.570557199999996,Buffalo-San Jacinto,img/police.png
-1,,HARRIS,HOUSTON,,,,TEXAS DEPARTMENT OF PUBLIC SAFETY - HIGHWAY PATROL HEADQUARTERS REGION 2 AREA 2,0,No,29.903846699999999,-95.598129900000004,Buffalo-San Jacinto,img/police.png
-1,,HARRIS,HOUSTON,,,,TEXAS DEPARTMENT OF PUBLIC SAFETY TEXAS RANGER COMPANY A - HOUSTON,0,No,29.903849999999998,-95.598131699999996,Buffalo-San Jacinto,img/police.png
-1,,HARRIS,CROSBY,,,,CROSBY INDEPENDENT SCHOOL DISTRICT POLICE DEPARTMENT,0,No,29.899730600000002,-95.065582399999997,Buffalo-San Jacinto,img/police.png
-1,,HARRIS,HOUSTON,,,,ALDINE INDEPENDENT SCHOOL DISTRICT POLICE DEPARTMENT,1,Yes,29.933920100000002,-95.353623400000004,Buffalo-San Jacinto,img/police.png
-1,,HARRIS,HUMBLE,,,,HARRIS COUNTY SHERIFFS OFFICE DIVISION 2 - HUMBLE,0,No,29.978932799999999,-95.266323200000002,Buffalo-San Jacinto,img/police.png
-1,,HARRIS,HOUSTON,,,,HOUSTON POLICE DEPARTMENT - INTERCONTINENTAL AIRPORT DIVISION,0,No,29.986706099999999,-95.338463800000000,Buffalo-San Jacinto,img/police.png
-1,,HARRIS,HUMBLE,,,,HUMBLE POLICE DEPARTMENT,0,No,29.999634400000001,-95.268636900000004,Buffalo-San Jacinto,img/police.png