NAME,ADDRESS,CITY,STATE,ZIP,TYPE,COUNTY,EVAC_CAP,POST_CAP,SFHA,In_SFHA,lat,lng,Watershed,logo_url
C E KING MIDDLE SCHOOL,8530 CE KING PARKWAY,HOUSTON,TX,77044,BOTH,HARRIS,1004,502,0,No,29.84843147,-95.21179954,Buffalo-San Jacinto,img/shelters.png
NEW MOUNT CALVARY BAPTIST CHURCH,6050 BELDART ST,HOUSTON,TX,77033,BOTH,HARRIS,60,30,1,Yes,29.66220073,-95.32110966,Buffalo-San Jacinto,img/shelters.png
GREATER MACEDONIA BAPTIST CHURCH,5510 WEST SAM HOUSTON PARKWAY NORTH,HOUSTON,TX,77041,POST,HARRIS,156,78,0,No,29.84655376,-95.56248094,Buffalo-San Jacinto,img/shelters.png
NEW HOPE BAPTIST CHURCH,6430 COURT RD,HOUSTON,TX,77053,POST,FORT BEND,800,400,0,No,29.59107014,-95.48291152,Buffalo-San Jacinto,img/shelters.png
GREATER ST. MATTHEW CHURCH - BOOKER FAMILY LIFE CTR,7701 JUTLAND,HOUSTON,TX,77033,POST,HARRIS,0,108,0,No,29.67341166,-95.34543227,Buffalo-San Jacinto,img/shelters.png
AUCHAN,6059 SOUTH LOOP EAST,HOUSTON,TX,77023,POST,HARRIS,0,2000,0,No,29.6957157,-95.32242562,Buffalo-San Jacinto,img/shelters.png
ST. FRANCIS XAVIER CATHOLIC CHURCH - PARISH HALL,4600 REED RD,HOUSTON,TX,77051,BOTH,HARRIS,270,135,0,No,29.65794587,-95.35768047,Buffalo-San Jacinto,img/shelters.png
ELDRIDGE PARK CONFERENCE CENTER,2511 ELDRIDGE ROAD,SUGAR LAND,TX,77478,POST,FORT BEND,0,25,0,No,29.65351732,-95.62191546,Buffalo-San Jacinto,img/shelters.png
SAINT PHILLIP PRESBYTERIAN CHURCH,4807 SAN FELIPE,HOUSTON,TX,77056,EVAC,HARRIS,200,100,0,No,29.74895507,-95.45908571,Buffalo-San Jacinto,img/shelters.png
ST JOHNS PRESBYTERIAN CHURCH,5020 WEST BELLFORT,HOUSTON,TX,77035,EVAC,HARRIS,200,100,1,Yes,29.66878149,-95.4669039,Buffalo-San Jacinto,img/shelters.png
NEW JERUSALEM MINISTRIES,1613 WEST LITTLE YORK ROAD,HOUSTON,TX,77091,EVAC,HARRIS,200,100,0,No,29.86241291,-95.43538201,Buffalo-San Jacinto,img/shelters.png
NORTHSIDE BAPTIST CHURCH,300 CEDAR BAYOU ROAD,BAYTOWN,TX,77520,BOTH,HARRIS,300,150,0,No,29.7488183,-94.96115034,Buffalo-San Jacinto,img/shelters.png
JERSEY VILLAGE BAPTIST CHURCH,16518 JERSEY DRIVE,HOUSTON,TX,77040,EVAC,HARRIS,300,150,0,No,29.88587724,-95.57503745,Buffalo-San Jacinto,img/shelters.png
CLEVELAND-RIPLEY HOUSE NEIGHBORHOOD CENTER,720 FAIRMONT PKWY,PASADENA,TX,77504,POST,HARRIS,0,100,0,No,29.65059887,-95.20145423,Buffalo-San Jacinto,img/shelters.png
ZION LUTHERAN CHURCH,3606 BEACHAMP,HOUSTON,TX,77009,EVAC,HARRIS,215,430,0,No,29.79014722,-95.37389904,Buffalo-San Jacinto,img/shelters.png
GRAY RECREATION CENTER,5200 EAST ROAD,BAYTOWN,TX,77521,EVAC,HARRIS,300,150,0,No,29.78157534,-94.96892514,Buffalo-San Jacinto,img/shelters.png
ST. MARKS UNITED METHODIST CHURCH,600 PECORE ST,HOUSTON,TX,77009,EVAC,HARRIS,300,200,0,No,29.79029353,-95.3775393,Buffalo-San Jacinto,img/shelters.png
ST. PAUL MISSIONARY BAPTIST CHURCH,8302 COLONIAL LANE,HOUSTON,TX,77051,BOTH,HARRIS,100,100,0,No,29.67174034,-95.36895016,Buffalo-San Jacinto,img/shelters.png
PINE FOREST BAPTIST,2900 ATASCOCITA,HUMBLE,TX,77396,EVAC,HARRIS,100,0,0,No,29.97264799,-95.22773006,Buffalo-San Jacinto,img/shelters.png
COPPERFIELD CHURCH,8350 HWY 6 NORTH,HOUSTON,TX,77095,BOTH,HARRIS,540,270,0,No,29.89839658,-95.63382646,Buffalo-San Jacinto,img/shelters.png
BAYTOWN COMMUNITY CENTER,2407 MARKET ST,BAYTOWN,TX,77520,EVAC,HARRIS,300,342,0,No,29.72721041,-94.9965359,Buffalo-San Jacinto,img/shelters.png
MISSOURI STREET CHURCH OF CHRIST,3400 S HWY 146,BAYTOWN,TX,77522,EVAC,HARRIS,150,75,1,Yes,29.71444492,-94.9953428,Buffalo-San Jacinto,img/shelters.png
CHRISTCHURCH BAPTIST FELLOWSHIP,12501 CHAMPION FOREST DRIVE,HOUSTON,TX,77066,EVAC,HARRIS,300,150,0,No,29.9734897,-95.50975786,Buffalo-San Jacinto,img/shelters.png
ST. STEPHEN BAPTIST CHURCH GYM,170 RITTENHOUSE,HOUSTON,TX,77076,POST,HARRIS,274,137,0,No,29.86347819,-95.37879509,Buffalo-San Jacinto,img/shelters.png
SAN JACINTO COLLEGE NORTH,5800 UVALDE ROAD,HOUSTON,TX,77049,EVAC,HARRIS,600,300,0,No,29.8106222,-95.18108398,Buffalo-San Jacinto,img/shelters.png
GRACE FELLOWSHIP UNITED METHODIST CHURCH,2655 SOUTH MASON,KATY,TX,77450,BOTH,HARRIS,250,125,0,No,29.74434172,-95.74646205,Buffalo-San Jacinto,img/shelters.png
SHELDON INTERMEDIATE SCHOOL,17010 BEAUMONT HIGHWAY,HOUSTON,TX,77049,EVAC,HARRIS,400,200,0,No,29.86418466,-95.13454011,Buffalo-San Jacinto,img/shelters.png
ST CECILIA CATHOLIC CHURCH SCHOOL,11720 JOAN OF ARC DRIVE,HOUSTON,TX,77024,EVAC,HARRIS,400,200,0,No,29.7788383,-95.52956425,Buffalo-San Jacinto,img/shelters.png
MEMORIAL BAPTIST CHURCH,611 W STERLING,BAYTOWN,TX,77520,BOTH,HARRIS,400,200,0,No,29.73613345,-94.97376033,Buffalo-San Jacinto,img/shelters.png
SAN JACINTO CHRISTIAN CHURCH,710 ALAMO ST,BAYTOWN,TX,77521,BOTH,HARRIS,200,100,0,No,29.80064574,-94.97629155,Buffalo-San Jacinto,img/shelters.png
BAYTOWN JUNIOR HIGH,7707 BAYWAY,BAYTOWN,TX,77520,BOTH,HARRIS,1069,534,0,No,29.77807694,-95.03298535,Buffalo-San Jacinto,img/shelters.png
STERLING HIGH SCHOOL,300 W BAKER,BAYTOWN,TX,77521,BOTH,HARRIS,1123,561,0,No,29.77113301,-94.96944511,Buffalo-San Jacinto,img/shelters.png
LEE HIGH SCHOOL ANNEX,1906 DECKER DRIVE,BAYTOWN,TX,77520,POST,HARRIS,0,115,0,No,29.74222475,-94.98184328,Buffalo-San Jacinto,img/shelters.png
MAGNOLIA MULTI SERVICE CENTER,7037 CAPITOL,HOUSTON,TX,77011,POST,HARRIS,120,62,0,No,29.73455457,-95.30087888,Buffalo-San Jacinto,img/shelters.png
SAINT THOMAS AQUINAS CATHOLIC CHURCH,12627 WEST BELLFORT AVENUE,SUGAR LAND,TX,77478,EVAC,FORT BEND,300,0,0,No,29.65953046,-95.60388485,Buffalo-San Jacinto,img/shelters.png
VICTORY IN JESUS - EVANGELISTIC CENTER CHURCH,4740 WEST OREM DRIVE,HOUSTON,TX,77045,EVAC,HARRIS,100,50,0,No,29.62782966,-95.45143334,Buffalo-San Jacinto,img/shelters.png
ADVENT LUTHERAN CHURCH,5820 PINEMONT,HOUSTON,TX,77092,EVAC,HARRIS,360,0,0,No,29.84093825,-95.4770707,Buffalo-San Jacinto,img/shelters.png
LA VOZ DEL SALVADOR,214 ADAMS ST,HOUSTON,TX,77011,EVAC,HARRIS,200,0,0,No,29.74393757,-95.32438291,Buffalo-San Jacinto,img/shelters.png
IGLESIA FUENTE DE AGUA VIVA,3335 WATTERS RD,PASADENA,TX,77504,EVAC,HARRIS,50,150,0,No,29.66139218,-95.1789908,Buffalo-San Jacinto,img/shelters.png
NOTRE DAME CHURCH,7720 BOONE ROAD,HOUSTON,TX,77072,EVAC,HARRIS,250,125,1,Yes,29.69418927,-95.57722921,Buffalo-San Jacinto,img/shelters.png
HOUSE OF REFUGE,2401 E THOMAS AVE,PASADENA,TX,77506,EVAC,HARRIS,50,300,0,No,29.70725626,-95.18155669,Buffalo-San Jacinto,img/shelters.png
SALEM EVANGELICAL LUTHERAN CHURCH,4930 W BELLFORT AVE,HOUSTON,TX,77035,EVAC,HARRIS,252,126,1,Yes,29.67064891,-95.46387968,Buffalo-San Jacinto,img/shelters.png
MISSOURI CITY COMMUNITY CENTER,1522 TEXAS PARKWAY,MISSOURI CITY,TX,77459,EVAC,FORT BEND,289,145,0,No,29.60541821,-95.52883325,Buffalo-San Jacinto,img/shelters.png
THIRD WARD MULTI-SVC CENTER,3611 ENNIS ST,HOUSTON,TX,77004,EVAC,HARRIS,250,104,0,No,29.72831781,-95.36161585,Buffalo-San Jacinto,img/shelters.png
HIGHLANDS JUNIOR SCHOOL,1212 W WALLISVILLE RD,HIGHLANDS,TX,77562,EVAC,HARRIS,100,478,0,No,29.82131987,-95.0400846,Buffalo-San Jacinto,img/shelters.png
ST JOHN'S LUTHERAN CHURCH,6601 SHERMAN AVE,HOUSTON,TX,77011,POST,HARRIS,0,10,0,No,29.74045657,-95.30907575,Buffalo-San Jacinto,img/shelters.png
ST. ANDREW'S PRESBYTERIAN CHURCH,5308 BUFFALO SPEEDWAY,HOUSTON,TX,77005,EVAC,HARRIS,200,77,0,No,29.72476634,-95.42825072,Buffalo-San Jacinto,img/shelters.png
WOOSTER BAPTIST CHURCH,7007 BAYWAY DRIVE,BAYTOWN,TX,77520,EVAC,HARRIS,200,200,0,No,29.7661976,-95.03284558,Buffalo-San Jacinto,img/shelters.png
RICE TEMPLE BAPTIST CHURCH,6409 GREENBRIAR,HOUSTON,TX,77030,EVAC,HARRIS,150,75,0,No,29.70873688,-95.41226367,Buffalo-San Jacinto,img/shelters.png
FIRST UNITED METHODIST CHURCH OF KATY,5601 5TH STREET,KATY,TX,77493,BOTH,HARRIS,235,117,0,No,29.79021285,-95.82178071,Buffalo-San Jacinto,img/shelters.png
OUR REDEEMER LUTHERAN CHURCH,215 RITTENHOUSE,HOUSTON,TX,77076,EVAC,HARRIS,160,0,0,No,29.86486938,-95.37478109,Buffalo-San Jacinto,img/shelters.png
DELIVERANCE TEMPLE CHURCH OF THE LIVING GOD,451 VICTORIA DR,HOUSTON,TX,77022,POST,HARRIS,0,50,1,Yes,29.83435603,-95.39351042,Buffalo-San Jacinto,img/shelters.png
ACRES HOMES COMMUNITY DEVELOPMENT CORPORATION,6719 W MONTGOMERY RD,HOUSTON,TX,77091,EVAC,HARRIS,250,105,0,No,29.85745771,-95.42183024,Buffalo-San Jacinto,img/shelters.png
ST PETER CLAVER CHURCH,6005 NORTH WAYSIDE,HOUSTON,TX,77028,EVAC,HARRIS,104,52,0,No,29.81662624,-95.28495579,Buffalo-San Jacinto,img/shelters.png
SAINT MAXIMILIAN KOLBE CATHOLIC COMMUNITY,10135 WEST ROAD,HOUSTON,TX,77064,EVAC,HARRIS,710,355,0,No,29.90841408,-95.56957728,Buffalo-San Jacinto,img/shelters.png
BELLAIRE UNITED METHODIST CHURCH,4417 BELLAIRE BLVD,BELLAIRE,TX,77401,EVAC,HARRIS,150,140,0,No,29.70524847,-95.45063491,Buffalo-San Jacinto,img/shelters.png
LORENZO DE ZAVALA ELEMENTARY SCHOOL,101 JACKSON,PASADENA,TX,77506,POST,HARRIS,0,1,0,No,29.70611749,-95.21093572,Buffalo-San Jacinto,img/shelters.png
HEIGHTS CHRISTIAN CHURCH,1703 HEIGHTS BLVD,HOUSTON,TX,77008,EVAC,HARRIS,100,50,0,No,29.80170676,-95.39830785,Buffalo-San Jacinto,img/shelters.png
CHRIST THE KING LUTHERAN CHURCH,2353 RICE BOULEVARD,HOUSTON,TX,77005,EVAC,HARRIS,100,26,0,No,29.71706443,-95.41298316,Buffalo-San Jacinto,img/shelters.png
FIRST BAPTIST CHURCH OF SOUTH HOUSTON,315 GEORGIA ST,SOUTH HOUSTON,TX,77587,EVAC,HARRIS,100,101,0,No,29.66774155,-95.23680923,Buffalo-San Jacinto,img/shelters.png
FIRST BAPTIST CHURCH OF JACINTO CITY,10701 WIGGINS,HOUSTON,TX,77029,EVAC,HARRIS,190,95,0,No,29.7663363,-95.23980943,Buffalo-San Jacinto,img/shelters.png
SOUTHWEST COMMUNITY CHRISTIAN CENTER,14880 BELLAIRE BLVD,HOUSTON,TX,77083,EVAC,HARRIS,100,0,1,Yes,29.70248417,-95.65033852,Buffalo-San Jacinto,img/shelters.png
LINDALE ASSEMBLY OF GOD CHURCH,504 CAPLAN,HOUSTON,TX,77022,EVAC,HARRIS,200,0,0,No,29.81502106,-95.36509724,Buffalo-San Jacinto,img/shelters.png
DEER PARK UNITED METHODIST CHURCH,1300 EAST 13TH STREET,DEER PARK,TX,77536,EVAC,HARRIS,200,0,0,No,29.69959432,-95.1094468,Buffalo-San Jacinto,img/shelters.png
FORGE FOR FAMILIES,3435 DIXIE DRIVE,HOUSTON,TX,77021,BOTH,HARRIS,1000,500,0,No,29.70435387,-95.36761877,Buffalo-San Jacinto,img/shelters.png
DELL DALE AVENUE BAPTIST CHURCH,402 DELL DALE AVE,CHANNELVIEW,TX,77530,POST,HARRIS,418,209,0,No,29.77968259,-95.13837136,Buffalo-San Jacinto,img/shelters.png
BETHANY BAPTIST CHURCH SBC,7304 HOMESTEAD,HOUSTON,TX,77028,BOTH,HARRIS,500,250,0,No,29.82796697,-95.30113526,Buffalo-San Jacinto,img/shelters.png
CHINESE COMMUNITY CENTER,9800 TOWN PARK,HOUSTON,TX,77036,EVAC,HARRIS,500,200,0,No,29.71270287,-95.55433029,Buffalo-San Jacinto,img/shelters.png
RICHEY STREET BAPTIST CHURCH,906 NATCHEZ,PASADENA,TX,77506,BOTH,HARRIS,200,100,0,No,29.69618515,-95.22022717,Buffalo-San Jacinto,img/shelters.png
CHANNELVIEW CRENSHAW PRIMARY SCHOOL,16204 WOOD DR,CHANNELVIEW,TX,77530,BOTH,HARRIS,288,144,0,No,29.80580718,-95.11460687,Buffalo-San Jacinto,img/shelters.png
CROSBY HIGH SCHOOL,14703 FM 2100,CROSBY,TX,77532,POST,HARRIS,0,105,0,No,29.89960915,-95.06565112,Buffalo-San Jacinto,img/shelters.png
ST. ANDREWS CATHOLIC CHURCH,827 SHELDON RD,CHANNELVIEW,TX,77530,BOTH,HARRIS,850,425,0,No,29.79111143,-95.12528725,Buffalo-San Jacinto,img/shelters.png
MEMORIAL DRIVE PRESBYTERIAN CHURCH,11612 MEMORIAL DRIVE,HOUSTON,TX,77024,BOTH,HARRIS,479,239,0,No,29.75336614,-95.52509319,Buffalo-San Jacinto,img/shelters.png
NEW DELIVERANCE CHURCH,14538 MINETTA,HOUSTON,TX,77035,POST,HARRIS,0,67,0,No,29.63605474,-95.50493145,Buffalo-San Jacinto,img/shelters.png
CHICANO FAMILY CENTER,7524 AVENUE E,HOUSTON,TX,77012,POST,HARRIS,0,30,0,No,29.73452306,-95.29070419,Buffalo-San Jacinto,img/shelters.png
CHANNELVIEW ALLEN HALL FAIR GROUNDS,16204 WOOD DRIVE,CHANNELVIEW,TX,77530,BOTH,HARRIS,204,102,0,No,29.80659,-95.1127,Buffalo-San Jacinto,img/shelters.png
CHANNELVIEW HIGH SCHOOL,1100 SHELDON ROAD,CHANNELVIEW,TX,77530,BOTH,HARRIS,2850,1425,0,No,29.79526005,-95.12210551,Buffalo-San Jacinto,img/shelters.png
SACRED HEART CATHOLIC CHURCH,915 RUNNEBURG RD,CROSBY,TX,77532,EVAC,HARRIS,217,108,0,No,29.91258024,-95.05872972,Buffalo-San Jacinto,img/shelters.png
FIRST ASSEMBLY OF GOD,330 SHELDON RD,CHANNELVIEW,TX,77530,POST,HARRIS,0,64,0,No,29.77670916,-95.12391509,Buffalo-San Jacinto,img/shelters.png
BEAR CREEK BAPTIST CHURCH,5901 N FRY RD,KATY,TX,77449,BOTH,HARRIS,75,37,0,No,29.85743869,-95.72060876,Buffalo-San Jacinto,img/shelters.png
SON RISE COMMUNITY CHURCH,5609 E MOUNT HOUSTON RD,HOUSTON,TX,77093,BOTH,HARRIS,381,190,0,No,29.89152483,-95.308386,Buffalo-San Jacinto,img/shelters.png
CORNERSTONE PRESBYTERIAN CHURCH,1351 S MASON RD,KATY,TX,77450,POST,HARRIS,150,75,0,No,29.76227574,-95.75064973,Buffalo-San Jacinto,img/shelters.png
FELLOWSHIP AT CINCO RANCH,22765 WESTHEIMER,KATY,TX,77450,BOTH,FORT BEND,30,15,0,No,29.73392437,-95.76327934,Buffalo-San Jacinto,img/shelters.png
GOLDEN AGE HOBBY HOUSE OF HOUSTON,2805 WINBERN STREET,HOUSTON,TX,77004,POST,HARRIS,0,61,0,No,29.72929924,-95.36382992,Buffalo-San Jacinto,img/shelters.png
NORTH SHORE COMMUNITY FELLOWSHIP OF FAITH,444 MAXEY RD,HOUSTON,TX,77013,BOTH,HARRIS,450,225,0,No,29.78843856,-95.2200648,Buffalo-San Jacinto,img/shelters.png
VFW CYPRESS POST 8905,21902 NORTHWEST FWY (HWY 290),CYPRESS,TX,77429,BOTH,HARRIS,275,137,0,No,29.93317958,-95.64308596,Buffalo-San Jacinto,img/shelters.png
SECOND CHRISTIAN CHURCH,4801 EDISON,HOUSTON,TX,77009,BOTH,HARRIS,43,21,0,No,29.80364093,-95.36363545,Buffalo-San Jacinto,img/shelters.png
COMMUNITY FAMILY CENTERS,7318 AVENUE F,HOUSTON,TX,77011,BOTH,HARRIS,372,186,0,No,29.73634253,-95.29390165,Buffalo-San Jacinto,img/shelters.png
GREATER ST. MATTHEW CHURCH SW CAMPUS,14919 SOUTH MAIN,HOUSTON,TX,77035,POST,HARRIS,0,200,0,No,29.62802107,-95.51069661,Buffalo-San Jacinto,img/shelters.png
BUSH INTERCONTINENTAL AIRPORT,2800 N TERMINAL RD,HOUSTON,TX,77032,BOTH,HARRIS,400,200,0,No,29.98674816,-95.33545956,Buffalo-San Jacinto,img/shelters.png
ST THOMAS MORE CATHOLIC CHURCH,10330 HILLCROFT ST,HOUSTON,TX,77096,BOTH,HARRIS,596,298,0,No,29.66858914,-95.49322957,Buffalo-San Jacinto,img/shelters.png
SOUTH MAIN BAPTIST CHURCH,200 COLQUITT STREET,HOUSTON,TX,77002,BOTH,HARRIS,225,112,0,No,29.73601088,-95.38294377,Buffalo-San Jacinto,img/shelters.png
NEIGHBORHOOD CENTERS INC - RIPLEY HOUSE,4410 NAVIGATION,HOUSTON,TX,77011,POST,HARRIS,0,203,0,No,29.7515143,-95.32885985,Buffalo-San Jacinto,img/shelters.png
WILLOW MEADOWS BAPTIST CHURCH,4300 W BELLFORT,HOUSTON,TX,77035,BOTH,HARRIS,300,150,0,No,29.67379969,-95.44936587,Buffalo-San Jacinto,img/shelters.png
HARBOR LIGHT CENTER,2407 NORTH MAIN,HOUSTON,TX,77009,BOTH,HARRIS,200,100,0,No,29.78191204,-95.36480895,Buffalo-San Jacinto,img/shelters.png
ALL NATIONS FAMILY WORSHIP CENTER,4039 HOLLISTER ST,HOUSTON,TX,77080,NOT AVAILABLE,HARRIS,0,50,1,Yes,29.83013261,-95.50963329,Buffalo-San Jacinto,img/shelters.png
ALL NATIONS FAMILY WORSHIP CENTER,3511 PINEMONT,HOUSTON,TX,77018,POST,HARRIS,0,50,0,No,29.84088678,-95.43313244,Buffalo-San Jacinto,img/shelters.png
FIRST PRESBYTERIAN CHURCH,5300 MAIN STREET,HOUSTON,TX,77004,EVAC,HARRIS,400,0,0,No,29.72774984,-95.38887419,Buffalo-San Jacinto,img/shelters.png
FIRST PRESBYTERIAN CHURCH,1715 MARKET STREET,BAYTOWN,TX,77520,EVAC,HARRIS,100,50,0,No,29.73236544,-94.98240542,Buffalo-San Jacinto,img/shelters.png
NULL MIDDLE SCHOOL,12177 GARRETT ROAD,HOUSTON,TX,77044,BOTH,HARRIS,1015,507,0,No,29.88455012,-95.21689969,Buffalo-San Jacinto,img/shelters.png
LIVING WORD FELLOWSHIP CHURCH,7350 WTC JESTER BLVD,HOUSTON,TX,77088,POST,HARRIS,0,135,0,No,29.86809982,-95.45804177,Buffalo-San Jacinto,img/shelters.png
VIETNAMESE COMMUNITY OF HOUSTON VICINITIES INC.,7100 CLAREWOOD DRIVE,HOUSTON,TX,77036,BOTH,HARRIS,82,41,0,No,29.70874469,-95.50989351,Buffalo-San Jacinto,img/shelters.png
EDGEWOOD ELEMENTARY SCHOOL,8757 KEMPWOOD DR,HOUSTON,TX,77080,BOTH,HARRIS,129,64,0,No,29.8143393,-95.50346767,Buffalo-San Jacinto,img/shelters.png
HOLY NAME CATHOLIC CHURCH,1920 MARION STREET,HOUSTON,TX,77009,BOTH,HARRIS,442,221,0,No,29.77929462,-95.35602215,Buffalo-San Jacinto,img/shelters.png
BAKER-RIPLEY NEIGHBORHOOD CENTER,6500 ROOKIN,HOUSTON,TX,77074,POST,HARRIS,0,160,0,No,29.71056367,-95.49767587,Buffalo-San Jacinto,img/shelters.png
AGAPE COMMUNITY BIBLE CHURCH,12320 BEECHNUT STREET,HOUSTON,TX,77072,EVAC,HARRIS,100,50,1,Yes,29.68977118,-95.59732301,Buffalo-San Jacinto,img/shelters.png
GREENSPOINT MALL,12300 NORTH FWY,HOUSTON,TX,77060,BOTH,HARRIS,100,50,0,No,29.94579089,-95.41192864,Buffalo-San Jacinto,img/shelters.png
MO CAMPBELL EDUCATION CENTER,1865 ALDINE BENDER RD,HOUSTON,TX,77032,BOTH,HARRIS,100,50,0,No,29.93233068,-95.35989231,Buffalo-San Jacinto,img/shelters.png
HOUSMAN ELEMENTARY SCHOOL,6705 HOUSMAN ST,HOUSTON,TX,77055,BOTH,HARRIS,150,75,0,No,29.8001555,-95.46970086,Buffalo-San Jacinto,img/shelters.png
WEST SUPPORT CENTER - SPRING BRANCH ISD,2100 SHADOWDALE DRIVE,HOUSTON,TX,77043,BOTH,HARRIS,125,62,0,No,29.80960949,-95.55367232,Buffalo-San Jacinto,img/shelters.png
MC WILLIAMS HIGH SCHOOL,5100 KNOX STREET,HOUSTON,TX,77096,BOTH,HARRIS,100,50,0,No,29.8537748,-95.42359038,Buffalo-San Jacinto,img/shelters.png
ST JOHN'S CHURCH NORTHWEST,8787 N HOUSTON ROSSLYN RD,HOUSTON,TX,77033,BOTH,HARRIS,100,50,0,No,29.87112421,-95.4919354,Buffalo-San Jacinto,img/shelters.png
JACINTO CITY MUNICIPAL COURTS AND COMMUNITY BUILDING,1025 OATES RD,HOUSTON,TX,77029,POST,HARRIS,0,150,0,No,29.76969996,-95.25097829,Buffalo-San Jacinto,img/shelters.png
FAIR HAVEN UNITED METHODIST CHURCH,1330 GESSNER DRIVE,HOUSTON,TX,77055,POST,HARRIS,201,100,0,No,29.793306,-95.54393428,Buffalo-San Jacinto,img/shelters.png
