OID,LocationID,County,City,FullName,OwnerType,FSSName,Name_1,SFHA,In_SFHA,lat,lng,Watershed,logo_url
-1,,,FRESNO,,,,,0,No,29.606632133000002,-95.447064147000006,,img/substations.png
-1,,,MISSOURI CITY,,,,,0,No,29.612644895999999,-95.529989463000007,,img/substations.png
-1,,,BROOKSIDE VILLAGE,,,,,0,No,29.627507326000000,-95.352799739999995,,img/substations.png
-1,,,BROOKSIDE VILLAGE,,,,,0,No,29.627526575000001,-95.328675696000005,,img/substations.png
-1,,,BROOKSIDE VILLAGE,,,,,0,No,29.627871549999998,-95.352593608000006,,img/substations.png
-1,,,SOUTHSIDE PLACE,,,,,0,No,29.628427722000001,-95.402817205000005,,img/substations.png
-1,,,MISSOURI CITY,,,,,0,No,29.628667647000000,-95.496802762000002,,img/substations.png
-1,,,SOUTH HOUSTON,,,,,0,No,29.629063169999998,-95.225154587999995,,img/substations.png
-1,,,SOUTHSIDE PLACE,,,,,0,No,29.630119396000001,-95.403542833000003,,img/substations.png
-1,,,STAFFORD,,,,,0,No,29.633234227999999,-95.561971076999995,,img/substations.png
-1,,,MEADOWS,,,,,0,No,29.637466585999999,-95.571918781999997,,img/substations.png
-1,,,BELLAIRE,,,,,0,No,29.647074843999999,-95.448986008000006,,img/substations.png
-1,,,SOUTHSIDE PLACE,,,,,0,No,29.649674094000002,-95.446977907000004,,img/substations.png
-1,,,BELLAIRE,,,,,0,No,29.649812222000001,-95.447394114000005,,img/substations.png
-1,,,BELLAIRE,,,,,0,No,29.650142681999998,-95.448612401999995,,img/substations.png
-1,,,BROOKSIDE VILLAGE,,,,,0,No,29.650899316000000,-95.314524492999993,,img/substations.png
-1,,,BROOKSIDE VILLAGE,,,,,0,No,29.651922667000001,-95.329197284000003,,img/substations.png
-1,,,SOUTH HOUSTON,,,,,0,No,29.657424082999999,-95.223553992000006,,img/substations.png
-1,,,PASADENA,,,,,0,No,29.657906402999998,-95.190637723999998,,img/substations.png
-1,,,SOUTH HOUSTON,,,,,1,Yes,29.659717712999999,-95.244846625999998,,img/substations.png
-1,,,MEADOWS,,,,,0,No,29.665989077999999,-95.561140492999996,,img/substations.png
-1,,,SOUTH HOUSTON,,,,,0,No,29.667152520999998,-95.283005399999993,,img/substations.png
-1,,,BELLAIRE,,,,,0,No,29.667153757000001,-95.482566379000005,,img/substations.png
-1,,,SOUTH HOUSTON,,,,,0,No,29.667387446999999,-95.283327405999998,,img/substations.png
-1,,,MISSOURI CITY,,,,,0,No,29.667887145000002,-95.509357980000004,,img/substations.png
-1,,,SOUTHSIDE PLACE,,,,,0,No,29.672248568000001,-95.413069121000007,,img/substations.png
-1,,,MEADOWS,,,,,0,No,29.674217773999999,-95.581297266000007,,img/substations.png
-1,,,TOWN WEST,,,,,0,No,29.674798256999999,-95.620768502999994,,img/substations.png
-1,,,SOUTH HOUSTON,,,,,0,No,29.677918434999999,-95.321984522999998,,img/substations.png
-1,,,NOT AVAILABLE,,,,,0,No,29.677967720000002,-95.322028329999995,,img/substations.png
-1,,,SOUTHSIDE PLACE,,,,,0,No,29.679452719000000,-95.372117281000001,,img/substations.png
-1,,,SOUTH HOUSTON,,,,,0,No,29.682841792000001,-95.253957581999998,,img/substations.png
-1,,,BELLAIRE,,,,,1,Yes,29.684158047000000,-95.447835626000000,,img/substations.png
-1,,,SOUTHSIDE PLACE,,,,,0,No,29.685276576000000,-95.406477658000000,,img/substations.png
-1,,,HOUSTON,,,,,0,No,29.688088083000000,-95.325144538000004,,img/substations.png
-1,,,SOUTHSIDE PLACE,,,,,0,No,29.689420365000000,-95.389564725000000,,img/substations.png
-1,,,SOUTHSIDE PLACE,,,,,0,No,29.689578059999999,-95.408494140000002,,img/substations.png
-1,,,MEADOWS,,,,,1,Yes,29.689945485999999,-95.536679958999997,,img/substations.png
-1,,,PASADENA,,,,,0,No,29.689996074000000,-95.222882979999994,,img/substations.png
-1,,,DEER PARK,,,,,0,No,29.692503082999998,-95.128765662000006,,img/substations.png
-1,,,SOUTH HOUSTON,,,,,0,No,29.693216687000000,-95.300134217999997,,img/substations.png
-1,,,LA PORTE,,,,,0,No,29.693424159999999,-95.035501475999993,,img/substations.png
-1,,,LA PORTE,,,,,0,No,29.694840691000000,-95.039490576000006,,img/substations.png
-1,,,NOT AVAILABLE,,,,,0,No,29.696582090000000,-95.398219429999997,,img/substations.png
-1,,,PASADENA,,,,,0,No,29.699134528999998,-95.171716228999998,,img/substations.png
-1,,,MEADOWS,,,,,1,Yes,29.700429022000002,-95.581811825000003,,img/substations.png
-1,,,GALENA PARK,,,,,0,No,29.700837639000000,-95.253038743000005,,img/substations.png
-1,,,DEER PARK,,,,,0,No,29.700951041000000,-95.072676334999997,,img/substations.png
-1,,,BELLAIRE,,,,,0,No,29.701404417999999,-95.487181383000006,,img/substations.png
-1,,,NOT AVAILABLE,,,,,1,Yes,29.702278038999999,-95.398862717000000,,img/substations.png
-1,,,DEER PARK,,,,,0,No,29.702986569000000,-95.072320704000006,,img/substations.png
-1,,,WEST UNIVERSITY PLACE,,,,,1,Yes,29.703372341000001,-95.401472033999994,,img/substations.png
-1,,,WEST UNIVERSITY PLACE,,,,,1,Yes,29.703737341000000,-95.399289565999993,,img/substations.png
-1,,,GALENA PARK,,,,,0,No,29.705715652999999,-95.250723487000002,,img/substations.png
-1,,,DEER PARK,,,,,0,No,29.705999062000000,-95.074412608000003,,img/substations.png
-1,,,GALENA PARK,,,,,0,No,29.706192664000000,-95.256970366000004,,img/substations.png
-1,,,GALENA PARK,,,,,0,No,29.707410899999999,-95.252443877000005,,img/substations.png
-1,,,NOT AVAILABLE,,,,,1,Yes,29.711743378000001,-95.643292309000003,,img/substations.png
-1,,,DEER PARK,,,,,1,Yes,29.712185870999999,-95.135532135999995,,img/substations.png
-1,,,DEER PARK,,,,,0,No,29.712721717000001,-95.072359204999998,,img/substations.png
-1,,,DEER PARK,,,,,0,No,29.712967347999999,-95.074735821999994,,img/substations.png
-1,,,GALENA PARK,,,,,0,No,29.713541909000000,-95.256214643000007,,img/substations.png
-1,,,GALENA PARK,,,,,0,No,29.715019221999999,-95.224452951999993,,img/substations.png
-1,,,GALENA PARK,,,,,0,No,29.715115810000000,-95.265456103999995,,img/substations.png
-1,,,HOUSTON,,,,,0,No,29.716343021000000,-95.332248738999994,,img/substations.png
-1,,,PASADENA,,,,,0,No,29.716356654999998,-95.200402178999994,,img/substations.png
-1,,,PASADENA,,,,,0,No,29.716418695000002,-95.189241160999998,,img/substations.png
-1,,,DEER PARK,,,,,0,No,29.716609904999999,-95.090124852000002,,img/substations.png
-1,,,PASADENA,,,,,0,No,29.716778568999999,-95.200357194999995,,img/substations.png
-1,,,PASADENA,,,,,0,No,29.716996437999999,-95.200839708000004,,img/substations.png
-1,,,HOUSTON,,,,,0,No,29.717300126000001,-95.331050348999995,,img/substations.png
-1,,,GALENA PARK,,,,,0,No,29.717345926000000,-95.233247445999993,,img/substations.png
-1,,,GALENA PARK,,,,,0,No,29.717804457000000,-95.234385271999997,,img/substations.png
-1,,,DEER PARK,,,,,0,No,29.718178475999999,-95.070164376999998,,img/substations.png
-1,,,DEER PARK,,,,,0,No,29.718357551000000,-95.113594586999994,,img/substations.png
-1,,,BUNKER HILL VILLAGE,,,,,0,No,29.718604260999999,-95.558741104000006,,img/substations.png
-1,,,PINEY POINT VILLAGE,,,,,0,No,29.718718988999999,-95.536692571000003,,img/substations.png
-1,,,GALENA PARK,,,,,0,No,29.718819881999998,-95.226289571999999,,img/substations.png
-1,,,GALENA PARK,,,,,1,Yes,29.719626998999999,-95.224408432000004,,img/substations.png
-1,,,GALENA PARK,,,,,0,No,29.719705522000002,-95.228384512000005,,img/substations.png
-1,,,DEER PARK,,,,,1,Yes,29.719953035000000,-95.164265271000005,,img/substations.png
-1,,,DEER PARK,,,,,0,No,29.720109138000002,-95.111492002000006,,img/substations.png
-1,,,GALENA PARK,,,,,0,No,29.720211436000000,-95.207361938000005,,img/substations.png
-1,,,DEER PARK,,,,,0,No,29.720268134000001,-95.071604124000004,,img/substations.png
-1,,,PASADENA,,,,,0,No,29.720284825000000,-95.183205091000005,,img/substations.png
-1,,,GALENA PARK,,,,,0,No,29.720380240000001,-95.226943320999993,,img/substations.png
-1,,,DEER PARK,,,,,0,No,29.720560627000001,-95.113621288999994,,img/substations.png
-1,,,DEER PARK,,,,,0,No,29.720604068000000,-95.072085587999993,,img/substations.png
-1,,,PINEY POINT VILLAGE,,,,,0,No,29.720821132000001,-95.519325773999995,,img/substations.png
-1,,,HOUSTON,,,,,0,No,29.721080607000001,-95.364567661999999,,img/substations.png
-1,,,NOT AVAILABLE,,,,,0,No,29.721185049999999,-95.365199489999995,,img/substations.png
-1,,,DEER PARK,,,,,0,No,29.721289710000001,-95.105986338999998,,img/substations.png
-1,,,DEER PARK,,,,,0,No,29.721351755000001,-95.164357764000002,,img/substations.png
-1,,,BELLAIRE,,,,,0,No,29.721603162000001,-95.497553922999998,,img/substations.png
-1,,,BELLAIRE,,,,,0,No,29.721681041000000,-95.485037426000005,,img/substations.png
-1,,,BELLAIRE,,,,,0,No,29.721728646999999,-95.487629936000005,,img/substations.png
-1,,,DEER PARK,,,,,0,No,29.721985695000001,-95.123895794999996,,img/substations.png
-1,,,BELLAIRE,,,,,0,No,29.722089300000000,-95.497694053999993,,img/substations.png
-1,,,GALENA PARK,,,,,0,No,29.722612222999999,-95.259765506999997,,img/substations.png
-1,,,WEST UNIVERSITY PLACE,,,,,0,No,29.722790235000002,-95.448178978000001,,img/substations.png
-1,,,LYNCHBURG,,,,,0,No,29.723108402000001,-95.059285649000003,,img/substations.png
-1,,,DEER PARK,,,,,0,No,29.723803967999999,-95.082717123999998,,img/substations.png
-1,,,LYNCHBURG,,,,,0,No,29.724492312999999,-95.062283084000001,,img/substations.png
-1,,,WEST UNIVERSITY PLACE,,,,,0,No,29.724687986999999,-95.450538828000006,,img/substations.png
-1,,,DEER PARK,,,,,0,No,29.724799326999999,-95.063944238999994,,img/substations.png
-1,,,PASADENA,,,,,0,No,29.724880915000000,-95.175710873000000,,img/substations.png
-1,,,LYNCHBURG,,,,,0,No,29.725173911999999,-95.060337294999997,,img/substations.png
-1,,,PASADENA,,,,,0,No,29.726288254000000,-95.175854880000003,,img/substations.png
-1,,,GALENA PARK,,,,,1,Yes,29.726769750999999,-95.229957386999999,,img/substations.png
-1,,,DEER PARK,,,,,0,No,29.727033909999999,-95.154240814999994,,img/substations.png
-1,,,GALENA PARK,,,,,1,Yes,29.727177232999999,-95.229883029000007,,img/substations.png
-1,,,DEER PARK,,,,,0,No,29.727210081999999,-95.113027501000005,,img/substations.png
-1,,,DEER PARK,,,,,0,No,29.728637719000002,-95.082393848999999,,img/substations.png
-1,,,DEER PARK,,,,,0,No,29.729244843000000,-95.092498363999994,,img/substations.png
-1,,,KATY,,,,,0,No,29.729263238000001,-95.776393451000004,,img/substations.png
-1,,,DEER PARK,,,,,0,No,29.729268995000002,-95.150264797000006,,img/substations.png
-1,,,CLOVERLEAF,,,,,0,No,29.729288140000001,-95.174934059999998,,img/substations.png
-1,,,WEST UNIVERSITY PLACE,,,,,0,No,29.729747321000001,-95.422915592999999,,img/substations.png
-1,,,DEER PARK,,,,,0,No,29.731849589999999,-95.102002556000002,,img/substations.png
-1,,,DEER PARK,,,,,0,No,29.732230717000000,-95.082730276999996,,img/substations.png
-1,,,GALENA PARK,,,,,1,Yes,29.732658330000000,-95.229495211000000,,img/substations.png
-1,,,HOUSTON,,,,,0,No,29.732847333999999,-95.385868172000002,,img/substations.png
-1,,,BAYTOWN,,,,,0,No,29.732938912000002,-95.005042568999997,,img/substations.png
-1,,,PINEY POINT VILLAGE,,,,,0,No,29.733086733000000,-95.518972254999994,,img/substations.png
-1,,,BAYTOWN,,,,,0,No,29.733289393000000,-95.003553764000003,,img/substations.png
-1,,,DEER PARK,,,,,0,No,29.733374397999999,-95.097896172000006,,img/substations.png
-1,,,BAYTOWN,,,,,0,No,29.733571848000000,-95.004952149000005,,img/substations.png
-1,,,GALENA PARK,,,,,0,No,29.733872370000000,-95.223651447999998,,img/substations.png
-1,,,NOT AVAILABLE,,,,,0,No,29.734490359999999,-95.004684182999995,,img/substations.png
-1,,,HUNTERS CREEK VILLAGE,,,,,0,No,29.735880557000002,-95.483810825000006,,img/substations.png
-1,,,ADDICKS,,,,,0,No,29.736582039000002,-95.617327219000003,,img/substations.png
-1,,,CLOVERLEAF,,,,,1,Yes,29.737978025000000,-95.170349860000002,,img/substations.png
-1,,,GALENA PARK,,,,,1,Yes,29.740719398000000,-95.191587694000006,,img/substations.png
-1,,,HOUSTON,,,,,0,No,29.741492843000000,-95.371464820000000,,img/substations.png
-1,,,COADY,,,,,0,No,29.742296036999999,-95.019993278000001,,img/substations.png
-1,,,GALENA PARK,,,,,0,No,29.742467964999999,-95.213488764000004,,img/substations.png
-1,,,HOUSTON,,,,,0,No,29.743025831000001,-95.309908484000005,,img/substations.png
-1,,,NOT AVAILABLE,,,,,0,No,29.743433711000002,-95.004105933999995,,img/substations.png
-1,,,HOUSTON,,,,,0,No,29.743712883000001,-95.310939704999996,,img/substations.png
-1,,,MISSION BEND,,,,,0,No,29.745539228999998,-95.739010492999995,,img/substations.png
-1,,,GALENA PARK,,,,,0,No,29.745797669000002,-95.230901115999998,,img/substations.png
-1,,,HOUSTON,,,,,0,No,29.746098677999999,-95.341490836999995,,img/substations.png
-1,,,BUNKER HILL VILLAGE,,,,,0,No,29.746339055000000,-95.574390412000000,,img/substations.png
-1,,,HOUSTON,,,,,0,No,29.747042197999999,-95.353119900999999,,img/substations.png
-1,,,GALENA PARK,,,,,0,No,29.747158636000002,-95.228652811000003,,img/substations.png
-1,,,GALENA PARK,,,,,0,No,29.747455810999998,-95.228929191999995,,img/substations.png
-1,,,HOUSTON,,,,,0,No,29.747910677000000,-95.384576355999997,,img/substations.png
-1,,,GALENA PARK,,,,,0,No,29.748074706000001,-95.207293734999993,,img/substations.png
-1,,,GALENA PARK,,,,,0,No,29.748514659000001,-95.217331736999995,,img/substations.png
-1,,,GALENA PARK,,,,,0,No,29.748543090999998,-95.217385350000001,,img/substations.png
-1,,,COADY,,,,,0,No,29.748888489999999,-95.021065417000003,,img/substations.png
-1,,,COADY,,,,,0,No,29.749678324000001,-95.019519410000001,,img/substations.png
-1,,,WEST UNIVERSITY PLACE,,,,,0,No,29.750582712000000,-95.447892105999998,,img/substations.png
-1,,,CHANNELVIEW,,,,,0,No,29.750729914000001,-95.126188614000000,,img/substations.png
-1,,,CLOVERLEAF,,,,,0,No,29.751059651999999,-95.194396381000004,,img/substations.png
-1,,,CHANNELVIEW,,,,,0,No,29.751809757000000,-95.125192958000000,,img/substations.png
-1,,,CHANNELVIEW,,,,,0,No,29.752083705000000,-95.126845394000000,,img/substations.png
-1,,,CLOVERLEAF,,,,,0,No,29.752124083000002,-95.185853280000003,,img/substations.png
-1,,,CHANNELVIEW,,,,,0,No,29.752222680999999,-95.128935870000007,,img/substations.png
-1,,,HOUSTON,,,,,0,No,29.752238007999999,-95.361676192999994,,img/substations.png
-1,,,HOUSTON,,,,,0,No,29.752369260999998,-95.304799544000005,,img/substations.png
-1,,,HOUSTON,,,,,0,No,29.752642595000001,-95.401854847999999,,img/substations.png
-1,,,COADY,,,,,0,No,29.752986802999999,-95.021113912999994,,img/substations.png
-1,,,CLOVERLEAF,,,,,0,No,29.753136805000000,-95.184626123000001,,img/substations.png
-1,,,CHANNELVIEW,,,,,0,No,29.753216858999998,-95.116426805000003,,img/substations.png
-1,,,COADY,,,,,0,No,29.753522414999999,-95.014810072000003,,img/substations.png
-1,,,HOUSTON,,,,,1,Yes,29.753839767999999,-95.306577000999994,,img/substations.png
-1,,,HOUSTON,,,,,0,No,29.755379589000000,-95.373728951999993,,img/substations.png
-1,,,HOUSTON,,,,,0,No,29.755541375000000,-95.301166233000004,,img/substations.png
-1,,,JACINTO CITY,,,,,0,No,29.757302408000001,-95.230307202000006,,img/substations.png
-1,,,CLOVERLEAF,,,,,0,No,29.757368367000002,-95.144590729000001,,img/substations.png
-1,,,COADY,,,,,0,No,29.758971427999999,-95.022014740000003,,img/substations.png
-1,,,CHANNELVIEW,,,,,1,Yes,29.759039617999999,-95.099121222999997,,img/substations.png
-1,,,CHANNELVIEW,,,,,1,Yes,29.759057464000001,-95.099073634000007,,img/substations.png
-1,,,CHANNELVIEW,,,,,1,Yes,29.759064841000001,-95.099015496000007,,img/substations.png
-1,,,JACINTO CITY,,,,,1,Yes,29.759087995000002,-95.230528492000005,,img/substations.png
-1,,,CLOVERLEAF,,,,,0,No,29.759673755000001,-95.173006672000000,,img/substations.png
-1,,,COADY,,,,,0,No,29.760100975000000,-95.005470316000000,,img/substations.png
-1,,,JACINTO CITY,,,,,0,No,29.760475556999999,-95.252720843000006,,img/substations.png
-1,,,HOUSTON,,,,,0,No,29.760955220000000,-95.299674350999993,,img/substations.png
-1,,,CHANNELVIEW,,,,,0,No,29.762172655000001,-95.099427883999994,,img/substations.png
-1,,,CHANNELVIEW,,,,,0,No,29.762305428000001,-95.099787473000006,,img/substations.png
-1,,,HOUSTON,,,,,0,No,29.762791607000000,-95.333341903000004,,img/substations.png
-1,,,HOUSTON,,,,,0,No,29.763010638000001,-95.352350287999997,,img/substations.png
-1,,,BAYTOWN,,,,,0,No,29.763681098999999,-94.982489497000003,,img/substations.png
-1,,,HOUSTON,,,,,0,No,29.764608075000002,-95.352555370999994,,img/substations.png
-1,,,HOUSTON,,,,,0,No,29.764724136000002,-95.333640752999997,,img/substations.png
-1,,,HOUSTON,,,,,0,No,29.766097729999998,-95.367767994000005,,img/substations.png
-1,,,LYNCHBURG,,,,,1,Yes,29.767576253000001,-95.072470683999995,,img/substations.png
-1,,,JACINTO CITY,,,,,0,No,29.769436339999999,-95.205613679999999,,img/substations.png
-1,,,ADDICKS,,,,,0,No,29.770878896999999,-95.617876287000001,,img/substations.png
-1,,,ADDICKS,,,,,0,No,29.770962974000000,-95.619210480000007,,img/substations.png
-1,,,JACINTO CITY,,,,,0,No,29.774964472000001,-95.267884347999995,,img/substations.png
-1,,,CLOVERLEAF,,,,,0,No,29.775611088000002,-95.150927515000006,,img/substations.png
-1,,,JACINTO CITY,,,,,0,No,29.775894365999999,-95.272688575000004,,img/substations.png
-1,,,JACINTO CITY,,,,,0,No,29.776250257000001,-95.272732700000006,,img/substations.png
-1,,,HOUSTON,,,,,0,No,29.776822591999998,-95.379894637000007,,img/substations.png
-1,,,JACINTO CITY,,,,,1,Yes,29.777383276999998,-95.231795636000001,,img/substations.png
-1,,,JACINTO CITY,,,,,1,Yes,29.777763025999999,-95.252129526000004,,img/substations.png
-1,,,JACINTO CITY,,,,,1,Yes,29.778533509999999,-95.252232280000001,,img/substations.png
-1,,,JACINTO CITY,,,,,1,Yes,29.778585219000000,-95.231691413999997,,img/substations.png
-1,,,HOUSTON,,,,,0,No,29.782429465000000,-95.398520594000004,,img/substations.png
-1,,,HOUSTON,,,,,0,No,29.783905185999998,-95.349833230000002,,img/substations.png
-1,,,HOUSTON,,,,,0,No,29.784399462000000,-95.350081861999996,,img/substations.png
-1,,,HILSHIRE VILLAGE,,,,,0,No,29.784782063000002,-95.461835933000003,,img/substations.png
-1,,,HILSHIRE VILLAGE,,,,,0,No,29.784868516000000,-95.461910806999995,,img/substations.png
-1,,,HILSHIRE VILLAGE,,,,,0,No,29.785233066000000,-95.479622590999995,,img/substations.png
-1,,,HEDWIG VILLAGE,,,,,0,No,29.785408255000000,-95.520626311000001,,img/substations.png
-1,,,KATY,,,,,0,No,29.787122895000000,-95.839255605999995,,img/substations.png
-1,,,JACINTO CITY,,,,,0,No,29.787435278000000,-95.291235678999996,,img/substations.png
-1,,,BUNKER HILL VILLAGE,,,,,0,No,29.788636418999999,-95.552674917000004,,img/substations.png
-1,,,ADDICKS,,,,,0,No,29.789657659000000,-95.619254378999997,,img/substations.png
-1,,,BUNKER HILL VILLAGE,,,,,0,No,29.794387411999999,-95.572569233999999,,img/substations.png
-1,,,HILSHIRE VILLAGE,,,,,0,No,29.794752797000001,-95.433439507000003,,img/substations.png
-1,,,MCNAIR,,,,,0,No,29.800551089999999,-95.031428371999993,,img/substations.png
-1,,,KATY,,,,,0,No,29.802730187000002,-95.753746304000003,,img/substations.png
-1,,,JACINTO CITY,,,,,0,No,29.804431968999999,-95.232323906999994,,img/substations.png
-1,,,MCNAIR,,,,,0,No,29.805147692999999,-94.987798330000004,,img/substations.png
-1,,,JACINTO CITY,,,,,0,No,29.806897257999999,-95.285588387999994,,img/substations.png
-1,,,CHANNELVIEW,,,,,0,No,29.813266466000002,-95.121100826000003,,img/substations.png
-1,,,CHANNELVIEW,,,,,0,No,29.813591172999999,-95.117149987000005,,img/substations.png
-1,,,CHANNELVIEW,,,,,0,No,29.815035115000001,-95.109249958999996,,img/substations.png
-1,,,HILSHIRE VILLAGE,,,,,0,No,29.815179296000000,-95.434826948999998,,img/substations.png
-1,,,HILSHIRE VILLAGE,,,,,0,No,29.816092868999998,-95.482925023000007,,img/substations.png
-1,,,HILSHIRE VILLAGE,,,,,0,No,29.816445782999999,-95.482586306000002,,img/substations.png
-1,,,NOT AVAILABLE,,,,,0,No,29.816477405000001,-95.482797165999997,,img/substations.png
-1,,,BEAUMONT PLACE,,,,,0,No,29.817123952999999,-95.219736394999998,,img/substations.png
-1,,,BEAUMONT PLACE,,,,,0,No,29.817195337000001,-95.219697728000000,,img/substations.png
-1,,,BEAUMONT PLACE,,,,,0,No,29.817955530999999,-95.163555416999998,,img/substations.png
-1,,,SPRING VALLEY,,,,,0,No,29.818405706000000,-95.524835324999998,,img/substations.png
-1,,,BEAUMONT PLACE,,,,,0,No,29.818444847999999,-95.219343984999995,,img/substations.png
-1,,,HOUSTON,,,,,0,No,29.818541447000001,-95.389312704000005,,img/substations.png
-1,,,CLOVERLEAF,,,,,1,Yes,29.818562821000000,-95.154028875999998,,img/substations.png
-1,,,CLOVERLEAF,,,,,1,Yes,29.818632261000001,-95.154107100999994,,img/substations.png
-1,,,HOUSTON,,,,,0,No,29.818696112000001,-95.353668377999995,,img/substations.png
-1,,,CLOVERLEAF,,,,,1,Yes,29.818851878000000,-95.154105803999997,,img/substations.png
-1,,,CLOVERLEAF,,,,,1,Yes,29.818942297000000,-95.154091725000001,,img/substations.png
-1,,,CHANNELVIEW,,,,,0,No,29.819346376999999,-95.126292847000002,,img/substations.png
-1,,,CHANNELVIEW,,,,,0,No,29.819599067999999,-95.126304895000004,,img/substations.png
-1,,,CHANNELVIEW,,,,,0,No,29.819718941000001,-95.111002370999998,,img/substations.png
-1,,,CLOVERLEAF,,,,,1,Yes,29.820021360999998,-95.154083340000000,,img/substations.png
-1,,,BEAUMONT PLACE,,,,,0,No,29.820096635999999,-95.220851259000000,,img/substations.png
-1,,,CHANNELVIEW,,,,,0,No,29.820154632000001,-95.126453209000005,,img/substations.png
-1,,,MCNAIR,,,,,0,No,29.820802968999999,-94.991695925000002,,img/substations.png
-1,,,JERSEY VILLAGE,,,,,0,No,29.820882525999998,-95.575505852999996,,img/substations.png
-1,,,MCNAIR,,,,,0,No,29.821151302000001,-94.990591211999998,,img/substations.png
-1,,,BEAUMONT PLACE,,,,,0,No,29.821165544999999,-95.219531345999997,,img/substations.png
-1,,,JERSEY VILLAGE,,,,,0,No,29.822577040999999,-95.572995380999998,,img/substations.png
-1,,,KATY,,,,,0,No,29.823788282999999,-95.840364343999994,,img/substations.png
-1,,,SHELDON,,,,,0,No,29.830204987999998,-95.117398244000000,,img/substations.png
-1,,,SHELDON,,,,,0,No,29.836647839000001,-95.123471526000003,,img/substations.png
-1,,,MOUNT HOUSTON,,,,,0,No,29.839621087000001,-95.353785146000007,,img/substations.png
-1,,,MOUNT HOUSTON,,,,,0,No,29.843965319999999,-95.314159502999999,,img/substations.png
-1,,,HIGHLANDS,,,,,1,Yes,29.847683577000002,-95.079169941999993,,img/substations.png
-1,,,NOT AVAILABLE,,,,,0,No,29.847901968999999,-95.058410152999997,,img/substations.png
-1,,,HOUMONT PARK,,,,,0,No,29.850643061000000,-95.266069874999999,,img/substations.png
-1,,,HILSHIRE VILLAGE,,,,,0,No,29.854544939000000,-95.476198990000000,,img/substations.png
-1,,,NOT AVAILABLE,,,,,0,No,29.859984389000001,-95.362642321999999,,img/substations.png
-1,,,NOT AVAILABLE,,,,,0,No,29.860333571999998,-95.362732926000007,,img/substations.png
-1,,,SATSUMA,,,,,0,No,29.863579769000001,-95.683935212999998,,img/substations.png
-1,,,ALDINE,,,,,0,No,29.863630094000001,-95.379417290999996,,img/substations.png
-1,,,ALDINE,,,,,0,No,29.864100696000001,-95.429911415000007,,img/substations.png
-1,,,KATY,,,,,1,Yes,29.875212738999998,-95.841348242999999,,img/substations.png
-1,,,MAGNOLIA GARDENS,,,,,0,No,29.876227294000000,-95.111617699999996,,img/substations.png
-1,,,MAGNOLIA GARDENS,,,,,0,No,29.876621049000001,-95.111625329000006,,img/substations.png
-1,,,JERSEY VILLAGE,,,,,0,No,29.881670408000002,-95.576457524000006,,img/substations.png
-1,,,MAGNOLIA GARDENS,,,,,0,No,29.883276400000000,-95.111525407000002,,img/substations.png
-1,,,MOUNT HOUSTON,,,,,0,No,29.883722720000002,-95.285264631999993,,img/substations.png
-1,,,NORTH HOUSTON,,,,,1,Yes,29.900055066000000,-95.501828125000003,,img/substations.png
-1,,,ALDINE,,,,,0,No,29.901722699000000,-95.370381537000000,,img/substations.png
-1,,,SHELDON,,,,,0,No,29.902737195000000,-95.150882687999996,,img/substations.png
-1,,,KINWOOD,,,,,1,Yes,29.908188122999999,-95.287582258000000,,img/substations.png
-1,,,KATY,,,,,1,Yes,29.910035619999999,-95.778077859000007,,img/substations.png
-1,,,KINWOOD,,,,,1,Yes,29.911270727000002,-95.321732792999995,,img/substations.png
-1,,,ALDINE,,,,,0,No,29.911422250000001,-95.422987288000002,,img/substations.png
-1,,,HOUMONT PARK,,,,,0,No,29.913287880999999,-95.214609783000000,,img/substations.png
-1,,,ALDINE,,,,,0,No,29.913974073999999,-95.369914981999997,,img/substations.png
-1,,,HOUMONT PARK,,,,,0,No,29.915342214999999,-95.216318739000002,,img/substations.png
-1,,,SATSUMA,,,,,0,No,29.918668339000000,-95.649992494000003,,img/substations.png
-1,,,MAGNOLIA GARDENS,,,,,0,No,29.918878530000001,-95.108089008999997,,img/substations.png
-1,,,KINWOOD,,,,,0,No,29.935073730999999,-95.288284122999997,,img/substations.png
-1,,,KINWOOD,,,,,0,No,29.937360544000001,-95.287054311000006,,img/substations.png
-1,,,NORTH HOUSTON,,,,,0,No,29.937896586000001,-95.525008120999999,,img/substations.png
-1,,,NORTH HOUSTON,,,,,0,No,29.937945478000000,-95.531670855000002,,img/substations.png
-1,,,NORTH HOUSTON,,,,,0,No,29.938342952999999,-95.526217908000007,,img/substations.png
-1,,,NORTH HOUSTON,,,,,0,No,29.939044522000000,-95.530119349000003,,img/substations.png
-1,,,NORTH HOUSTON,,,,,0,No,29.939279647999999,-95.525017043999995,,img/substations.png
-1,,,NORTH HOUSTON,,,,,0,No,29.940024859000001,-95.535011521000001,,img/substations.png
-1,,,NORTH HOUSTON,,,,,0,No,29.940177145000000,-95.532241827999997,,img/substations.png
-1,,,ALDINE,,,,,1,Yes,29.940626315999999,-95.369734277000006,,img/substations.png
-1,,,SATSUMA,,,,,0,No,29.948014249000000,-95.672583009999997,,img/substations.png
-1,,,KINWOOD,,,,,0,No,29.950844207999999,-95.333227506000000,,img/substations.png
-1,,,ALDINE,,,,,0,No,29.964386052999998,-95.382996606000006,,img/substations.png
-1,,,BAMMEL,,,,,0,No,29.964833133999999,-95.439818482000007,,img/substations.png
-1,,,ALDINE,,,,,1,Yes,29.967868280000001,-95.369500375000001,,img/substations.png
-1,,,WESTFIELD,,,,,0,No,29.983866586000001,-95.370740670000004,,img/substations.png
-1,,,WESTFIELD,,,,,0,No,29.986894330999998,-95.367429923000003,,img/substations.png