OID,LocationID,County,City,FullName,OwnerType,FSSName,Name_1,SFHA,In_SFHA,lat,lng,Watershed,logo_url
-1,,HARRIS,HUMBLE,,,,,0,No,29.992843600000000,-95.249602699999997,West Fork San Jacinto,img/ems.png
-1,,HARRIS,HUMBLE,,,,,0,No,29.994850700000001,-95.247148600000003,West Fork San Jacinto,img/ems.png
-1,,HARRIS,HUMBLE,,,,,0,No,29.995161599999999,-95.145479199999997,West Fork San Jacinto,img/ems.png
-1,,HARRIS,HUMBLE,,,,,0,No,29.997744500000000,-95.159022600000000,West Fork San Jacinto,img/ems.png
-1,,HARRIS,HUMBLE,,,,,0,No,29.998998799999999,-95.266334000000001,West Fork San Jacinto,img/ems.png
-1,,HARRIS,HUMBLE,,,,,0,No,30.016505599999999,-95.306321400000002,West Fork San Jacinto,img/ems.png
-1,,HARRIS,HUFFMAN,,,,,0,No,30.020572699999999,-95.103228200000004,West Fork San Jacinto,img/ems.png
-1,,HARRIS,HUMBLE,,,,,0,No,30.039938400000000,-95.239447799999994,West Fork San Jacinto,img/ems.png
-1,,HARRIS,KINGWOOD,,,,,0,No,30.051602899999999,-95.227624500000005,West Fork San Jacinto,img/ems.png
-1,,HARRIS,KINGWOOD,,,,,0,No,30.066886700000001,-95.187663000000001,West Fork San Jacinto,img/ems.png
-1,,MONTGOMERY,PORTER,,,,,0,No,30.106653000000001,-95.257600100000005,West Fork San Jacinto,img/ems.png
-1,,MONTGOMERY,PORTER,,,,,0,No,30.109114000000002,-95.261298400000001,West Fork San Jacinto,img/ems.png
-1,,MONTGOMERY,PORTER,,,,,0,No,30.110265200000001,-95.265463199999999,West Fork San Jacinto,img/ems.png
-1,,MONTGOMERY,CONROE,,,,,0,No,30.186147299999998,-95.347300899999993,West Fork San Jacinto,img/ems.png
-1,,MONTGOMERY,THE WOODLANDS,,,,,0,No,30.206792100000001,-95.459144899999998,West Fork San Jacinto,img/ems.png
-1,,MONTGOMERY,CONROE,,,,,0,No,30.213904500000002,-95.453168099999999,West Fork San Jacinto,img/ems.png
-1,,MONTGOMERY,CONROE,,,,,0,No,30.252805100000000,-95.395519100000001,West Fork San Jacinto,img/ems.png
-1,,MONTGOMERY,CONROE,,,,,0,No,30.257186099999998,-95.440442700000006,West Fork San Jacinto,img/ems.png
-1,,MONTGOMERY,CONROE,,,,,0,No,30.286597199999999,-95.467491800000005,West Fork San Jacinto,img/ems.png
-1,,MONTGOMERY,CONROE,,,,,0,No,30.319797699999999,-95.573099299999996,West Fork San Jacinto,img/ems.png
-1,,MONTGOMERY,CONROE,,,,,0,No,30.340674300000000,-95.447278499999996,West Fork San Jacinto,img/ems.png
-1,,MONTGOMERY,CONROE,,,,,0,No,30.353332900000002,-95.419256500000003,West Fork San Jacinto,img/ems.png
-1,,MONTGOMERY,MONTGOMERY,,,,,0,No,30.359853099999999,-95.601328600000002,West Fork San Jacinto,img/ems.png
-1,,MONTGOMERY,MONTGOMERY,,,,,0,No,30.388331500000000,-95.664485400000004,West Fork San Jacinto,img/ems.png
-1,,MONTGOMERY,MONTGOMERY,,,,,0,No,30.389545699999999,-95.692571900000004,West Fork San Jacinto,img/ems.png
-1,,MONTGOMERY,WILLIS,,,,,0,No,30.402606700000000,-95.527908699999998,West Fork San Jacinto,img/ems.png
-1,,MONTGOMERY,WILLIS,,,,,0,No,30.421009300000001,-95.486098799999994,West Fork San Jacinto,img/ems.png
-1,,MONTGOMERY,MONTGOMERY,,,,,0,No,30.437401000000001,-95.613617099999999,West Fork San Jacinto,img/ems.png
-1,,WALKER,HUNTSVILLE,,,,,0,No,30.748563200000000,-95.630908199999993,West Fork San Jacinto,img/ems.png
-1,,WALKER,HUNTSVILLE,,,,,0,No,30.752889499999998,-95.652146900000005,West Fork San Jacinto,img/ems.png