OID,LocationID,County,City,FullName,OwnerType,FSSName,Name_1,SFHA,In_SFHA,lat,lng,Watershed,logo_url
-1,,HARRIS,HOUSTON,,,,West Fork San Jacinto,0,No,29.927379214999998,-95.176461829999994,West Fork San Jacinto,img/public_schools.png
-1,,HARRIS,HOUSTON,,,,West Fork San Jacinto,0,No,29.931703042999999,-95.201981094000004,West Fork San Jacinto,img/public_schools.png
-1,,HARRIS,HUMBLE,,,,West Fork San Jacinto,0,No,29.977921616000000,-95.185363140999996,West Fork San Jacinto,img/public_schools.png
-1,,HARRIS,HUMBLE,,,,West Fork San Jacinto,0,No,29.979581768999999,-95.171378887000003,West Fork San Jacinto,img/public_schools.png
-1,,HARRIS,HUMBLE,,,,West Fork San Jacinto,0,No,29.986578852000001,-95.247909507000003,West Fork San Jacinto,img/public_schools.png
-1,,HARRIS,HUMBLE,,,,West Fork San Jacinto,0,No,29.989952210999999,-95.252617499999999,West Fork San Jacinto,img/public_schools.png
-1,,HARRIS,HUMBLE,,,,West Fork San Jacinto,0,No,29.990765753000002,-95.171188977000000,West Fork San Jacinto,img/public_schools.png
-1,,HARRIS,HUMBLE,,,,West Fork San Jacinto,0,No,29.993153243999998,-95.160740877999999,West Fork San Jacinto,img/public_schools.png
-1,,HARRIS,HUMBLE,,,,West Fork San Jacinto,0,No,29.998761061000000,-95.155404407999995,West Fork San Jacinto,img/public_schools.png
-1,,HARRIS,HUMBLE,,,,West Fork San Jacinto,0,No,29.999910114999999,-95.177269073000005,West Fork San Jacinto,img/public_schools.png
-1,,HARRIS,HUMBLE,,,,West Fork San Jacinto,0,No,30.003307021000001,-95.163155304000000,West Fork San Jacinto,img/public_schools.png
-1,,HARRIS,HUMBLE,,,,West Fork San Jacinto,0,No,30.006878164000000,-95.184563635999993,West Fork San Jacinto,img/public_schools.png
-1,,HARRIS,HUMBLE,,,,West Fork San Jacinto,0,No,30.007980000000000,-95.262951000000001,West Fork San Jacinto,img/public_schools.png
-1,,HARRIS,HOUSTON,,,,West Fork San Jacinto,0,No,30.007984199999999,-95.262954699999995,West Fork San Jacinto,img/public_schools.png
-1,,HARRIS,HUMBLE,,,,West Fork San Jacinto,0,No,30.008009999999999,-95.262968999999998,West Fork San Jacinto,img/public_schools.png
-1,,HARRIS,HUMBLE,,,,West Fork San Jacinto,0,No,30.011989237000002,-95.272865758999998,West Fork San Jacinto,img/public_schools.png
-1,,HARRIS,HUMBLE,,,,West Fork San Jacinto,0,No,30.013113000000001,-95.305198700000005,West Fork San Jacinto,img/public_schools.png
-1,,HARRIS,HUFFMAN,,,,West Fork San Jacinto,0,No,30.023784373000002,-95.112067814000000,West Fork San Jacinto,img/public_schools.png
-1,,HARRIS,HUFFMAN,,,,West Fork San Jacinto,0,No,30.024568392999999,-95.112381421999999,West Fork San Jacinto,img/public_schools.png
-1,,HARRIS,HUFFMAN,,,,West Fork San Jacinto,0,No,30.025432116000001,-95.112488296999999,West Fork San Jacinto,img/public_schools.png
-1,,HARRIS,KINGWOOD,,,,West Fork San Jacinto,0,No,30.042436075000001,-95.223645153000007,West Fork San Jacinto,img/public_schools.png
-1,,HARRIS,KINGWOOD,,,,West Fork San Jacinto,0,No,30.045403981000000,-95.195599508000001,West Fork San Jacinto,img/public_schools.png
-1,,HARRIS,KINGWOOD,,,,West Fork San Jacinto,0,No,30.051750828999999,-95.151974839999994,West Fork San Jacinto,img/public_schools.png
-1,,HARRIS,KINGWOOD,,,,West Fork San Jacinto,0,No,30.055302040000001,-95.211720564999993,West Fork San Jacinto,img/public_schools.png
-1,,HARRIS,KINGWOOD,,,,West Fork San Jacinto,0,No,30.056443192000000,-95.172933499999999,West Fork San Jacinto,img/public_schools.png
-1,,HARRIS,KINGWOOD,,,,West Fork San Jacinto,0,No,30.057040676000000,-95.203303438999995,West Fork San Jacinto,img/public_schools.png
-1,,MONTGOMERY,KINGWOOD,,,,West Fork San Jacinto,0,No,30.058157538000000,-95.243456051999999,West Fork San Jacinto,img/public_schools.png
-1,,HARRIS,KINGWOOD,,,,West Fork San Jacinto,0,No,30.058735811999998,-95.188425820000006,West Fork San Jacinto,img/public_schools.png
-1,,HARRIS,KINGWOOD,,,,West Fork San Jacinto,0,No,30.059000159000000,-95.213438655999994,West Fork San Jacinto,img/public_schools.png
-1,,HARRIS,KINGWOOD,,,,West Fork San Jacinto,0,No,30.062205058000000,-95.184391482999999,West Fork San Jacinto,img/public_schools.png
-1,,HARRIS,KINGWOOD,,,,West Fork San Jacinto,0,No,30.072554493999998,-95.212993991000005,West Fork San Jacinto,img/public_schools.png
-1,,MONTGOMERY,PORTER,,,,West Fork San Jacinto,0,No,30.077145859000002,-95.224248451999998,West Fork San Jacinto,img/public_schools.png
-1,,MONTGOMERY,PORTER,,,,West Fork San Jacinto,0,No,30.094920999999999,-95.252300000000005,West Fork San Jacinto,img/public_schools.png
-1,,MONTGOMERY,PORTER,,,,West Fork San Jacinto,0,No,30.096584902000000,-95.254011427999998,West Fork San Jacinto,img/public_schools.png
-1,,MONTGOMERY,PORTER,,,,West Fork San Jacinto,0,No,30.097077468999998,-95.230306986000002,West Fork San Jacinto,img/public_schools.png
-1,,MONTGOMERY,SPRING,,,,West Fork San Jacinto,0,No,30.110102000000001,-95.375415000000004,West Fork San Jacinto,img/public_schools.png
-1,,MONTGOMERY,PORTER,,,,West Fork San Jacinto,0,No,30.110268999999999,-95.268356999999995,West Fork San Jacinto,img/public_schools.png
-1,,MONTGOMERY,PORTER,,,,West Fork San Jacinto,0,No,30.131939295999999,-95.289288233999997,West Fork San Jacinto,img/public_schools.png
-1,,MONTGOMERY,SPRING,,,,West Fork San Jacinto,0,No,30.142493014999999,-95.385084750000004,West Fork San Jacinto,img/public_schools.png
-1,,MONTGOMERY,SPRING,,,,West Fork San Jacinto,0,No,30.144621999999998,-95.399012999999997,West Fork San Jacinto,img/public_schools.png
-1,,MONTGOMERY,CONROE,,,,West Fork San Jacinto,0,No,30.196743064000000,-95.344726578999996,West Fork San Jacinto,img/public_schools.png
-1,,MONTGOMERY,CONROE,,,,West Fork San Jacinto,0,No,30.208818582999999,-95.468011293999993,West Fork San Jacinto,img/public_schools.png
-1,,MONTGOMERY,CONROE,,,,West Fork San Jacinto,0,No,30.291926933999999,-95.472129269999996,West Fork San Jacinto,img/public_schools.png
-1,,MONTGOMERY,CONROE,,,,West Fork San Jacinto,0,No,30.295082981000000,-95.437558656999997,West Fork San Jacinto,img/public_schools.png
-1,,MONTGOMERY,CONROE,,,,West Fork San Jacinto,0,No,30.295283251000001,-95.458905384999994,West Fork San Jacinto,img/public_schools.png
-1,,MONTGOMERY,CONROE,,,,West Fork San Jacinto,0,No,30.304497123000001,-95.448167006999995,West Fork San Jacinto,img/public_schools.png
-1,,MONTGOMERY,CONROE,,,,West Fork San Jacinto,0,No,30.312079000000001,-95.480860000000007,West Fork San Jacinto,img/public_schools.png
-1,,MONTGOMERY,CONROE,,,,West Fork San Jacinto,0,No,30.315365040000000,-95.461325040000006,West Fork San Jacinto,img/public_schools.png
-1,,MONTGOMERY,CONROE,,,,West Fork San Jacinto,0,No,30.316067728000000,-95.453405339000000,West Fork San Jacinto,img/public_schools.png
-1,,MONTGOMERY,CONROE,,,,West Fork San Jacinto,0,No,30.318525178000002,-95.457696408999993,West Fork San Jacinto,img/public_schools.png
-1,,MONTGOMERY,CONROE,,,,West Fork San Jacinto,0,No,30.318570472000001,-95.457665195999994,West Fork San Jacinto,img/public_schools.png
-1,,MONTGOMERY,CONROE,,,,West Fork San Jacinto,0,No,30.318767311999999,-95.453592525999994,West Fork San Jacinto,img/public_schools.png
-1,,MONTGOMERY,CONROE,,,,West Fork San Jacinto,0,No,30.319117341999998,-95.453638354000006,West Fork San Jacinto,img/public_schools.png
-1,,MONTGOMERY,CONROE,,,,West Fork San Jacinto,0,No,30.319117341999998,-95.453617202999993,West Fork San Jacinto,img/public_schools.png
-1,,MONTGOMERY,MONTGOMERY,,,,West Fork San Jacinto,0,No,30.319932999999999,-95.618440000000007,West Fork San Jacinto,img/public_schools.png
-1,,MONTGOMERY,SPRING,,,,West Fork San Jacinto,0,No,30.320576211999999,-95.486046006999999,West Fork San Jacinto,img/public_schools.png
-1,,MONTGOMERY,CONROE,,,,West Fork San Jacinto,0,No,30.321423599999999,-95.484140053999994,West Fork San Jacinto,img/public_schools.png
-1,,MONTGOMERY,CONROE,,,,West Fork San Jacinto,0,No,30.323478646000002,-95.491392172999994,West Fork San Jacinto,img/public_schools.png
-1,,MONTGOMERY,CONROE,,,,West Fork San Jacinto,0,No,30.323538247999998,-95.491380745000001,West Fork San Jacinto,img/public_schools.png
-1,,MONTGOMERY,CONROE,,,,West Fork San Jacinto,0,No,30.323551604999999,-95.491347691000001,West Fork San Jacinto,img/public_schools.png
-1,,MONTGOMERY,CONROE,,,,West Fork San Jacinto,0,No,30.325342555999999,-95.442609485999995,West Fork San Jacinto,img/public_schools.png
-1,,MONTGOMERY,CONROE,,,,West Fork San Jacinto,0,No,30.330572644000000,-95.421408525999993,West Fork San Jacinto,img/public_schools.png
-1,,MONTGOMERY,CONROE,,,,West Fork San Jacinto,0,No,30.330871470999998,-95.484613190000005,West Fork San Jacinto,img/public_schools.png
-1,,MONTGOMERY,CONROE,,,,West Fork San Jacinto,0,No,30.333977000000001,-95.451809999999995,West Fork San Jacinto,img/public_schools.png
-1,,MONTGOMERY,CONROE,,,,West Fork San Jacinto,0,No,30.336676000000001,-95.488230000000001,West Fork San Jacinto,img/public_schools.png
-1,,MONTGOMERY,CONROE,,,,West Fork San Jacinto,0,No,30.338153064000000,-95.492160595000001,West Fork San Jacinto,img/public_schools.png
-1,,MONTGOMERY,MONTGOMERY,,,,West Fork San Jacinto,0,No,30.381633952000001,-95.698848808999998,West Fork San Jacinto,img/public_schools.png
-1,,MONTGOMERY,MONTGOMERY,,,,West Fork San Jacinto,0,No,30.387458275000000,-95.721472581000000,West Fork San Jacinto,img/public_schools.png
-1,,MONTGOMERY,MONTGOMERY,,,,West Fork San Jacinto,0,No,30.390266000000000,-95.667019999999994,West Fork San Jacinto,img/public_schools.png
-1,,MONTGOMERY,MONTGOMERY,,,,West Fork San Jacinto,0,No,30.390682999999999,-95.663309999999996,West Fork San Jacinto,img/public_schools.png
-1,,MONTGOMERY,MONTGOMERY,,,,West Fork San Jacinto,0,No,30.391026313000001,-95.691914290000000,West Fork San Jacinto,img/public_schools.png
-1,,MONTGOMERY,WILLIS,,,,West Fork San Jacinto,0,No,30.391960852000000,-95.478334755999995,West Fork San Jacinto,img/public_schools.png
-1,,MONTGOMERY,WILLIS,,,,West Fork San Jacinto,0,No,30.392208285999999,-95.497648044000002,West Fork San Jacinto,img/public_schools.png
-1,,MONTGOMERY,WILLIS,,,,West Fork San Jacinto,0,No,30.392317201000001,-95.477105287000001,West Fork San Jacinto,img/public_schools.png
-1,,MONTGOMERY,WILLIS,,,,West Fork San Jacinto,0,No,30.392598000000000,-95.500770000000003,West Fork San Jacinto,img/public_schools.png
-1,,MONTGOMERY,WILLIS,,,,West Fork San Jacinto,0,No,30.395384000000000,-95.475899999999996,West Fork San Jacinto,img/public_schools.png
-1,,MONTGOMERY,MONTGOMERY,,,,West Fork San Jacinto,0,No,30.397347358000001,-95.622016055000003,West Fork San Jacinto,img/public_schools.png
-1,,MONTGOMERY,MONTGOMERY,,,,West Fork San Jacinto,0,No,30.404444303999998,-95.700305603999993,West Fork San Jacinto,img/public_schools.png
-1,,MONTGOMERY,WILLIS,,,,West Fork San Jacinto,0,No,30.422615000000000,-95.480002999999996,West Fork San Jacinto,img/public_schools.png
-1,,MONTGOMERY,WILLIS,,,,West Fork San Jacinto,0,No,30.425760517000001,-95.488852163000004,West Fork San Jacinto,img/public_schools.png
-1,,MONTGOMERY,WILLIS,,,,West Fork San Jacinto,0,No,30.428441002000000,-95.483942669000001,West Fork San Jacinto,img/public_schools.png
-1,,MONTGOMERY,WILLIS,,,,West Fork San Jacinto,0,No,30.428743955000002,-95.490375696000001,West Fork San Jacinto,img/public_schools.png
-1,,MONTGOMERY,WILLIS,,,,West Fork San Jacinto,0,No,30.431609883000000,-95.489123880999998,West Fork San Jacinto,img/public_schools.png
-1,,MONTGOMERY,WILLIS,,,,West Fork San Jacinto,0,No,30.480039999999999,-95.496039999999994,West Fork San Jacinto,img/public_schools.png
-1,,GRIMES,RICHARDS,,,,West Fork San Jacinto,0,No,30.538972414000000,-95.842535501000000,West Fork San Jacinto,img/public_schools.png
-1,,GRIMES,RICHARDS,,,,West Fork San Jacinto,0,No,30.538983857000002,-95.842484635999995,West Fork San Jacinto,img/public_schools.png
-1,,WALKER,HUNTSVILLE,,,,West Fork San Jacinto,0,No,30.691698849000002,-95.536839407000002,West Fork San Jacinto,img/public_schools.png