OID,LocationID,County,City,FullName,OwnerType,FSSName,Name_1,SFHA,In_SFHA,lat,lng,Watershed,logo_url
-1,,GALVESTON,JAMAICA BEACH,,,,JAMAICA BEACH POLICE DEPARTMENT,1,Yes,29.182214699999999,-94.974877199999995,West Galveston Bay,img/police.png
-1,,BRAZORIA,LIVERPOOL,,,,LIVERPOOL POLICE DEPARTMENT,0,No,29.296432500000002,-95.276613900000001,West Galveston Bay,img/police.png
-1,,GALVESTON,GALVESTON,,,,GALVESTON INDEPENDENT SCHOOL DISTRICT POLICE DEPARTMENT,1,Yes,29.287833700000000,-94.810733700000000,West Galveston Bay,img/police.png
-1,,GALVESTON,GALVESTON,,,,GALVESTON COUNTY SHERIFFS DEPARTMENT / GALVESTON COUNTY JAIL,1,Yes,29.293214100000000,-94.831334299999995,West Galveston Bay,img/police.png
-1,,GALVESTON,GALVESTON,,,,GALVESTON POLICE DEPARTMENT,1,Yes,29.293215600000000,-94.831335199999998,West Galveston Bay,img/police.png
-1,,GALVESTON,TIKI ISLAND,,,,TIKI ISLAND POLICE DEPARTMENT,1,Yes,29.299311500000002,-94.907250500000004,West Galveston Bay,img/police.png
-1,,GALVESTON,GALVESTON,,,,GALVESTON CITY FIRE MARSHALS OFFICE,1,Yes,29.300704700000001,-94.795334400000002,West Galveston Bay,img/police.png
-1,,GALVESTON,GALVESTON,,,,GALVESTON COUNTY CONSTABLE - PRECINCT 1 AND 2,1,Yes,29.302384499999999,-94.788321900000000,West Galveston Bay,img/police.png
-1,,GALVESTON,GALVESTON,,,,GALVESTON PARK BOARD OF TRUSTEES BEACH PATROL,1,Yes,29.303220199999998,-94.796013599999995,West Galveston Bay,img/police.png
-1,,GALVESTON,GALVESTON,,,,PORT OF GALVESTON POLICE DEPARTMENT,1,Yes,29.308553900000000,-94.796403600000005,West Galveston Bay,img/police.png
-1,,GALVESTON,GALVESTON,,,,UNIVERSITY OF TEXAS MEDICAL SCHOOL - GALVESTON POLICE,1,Yes,29.310605200000001,-94.775881100000007,West Galveston Bay,img/police.png
-1,,GALVESTON,GALVESTON,,,,TEXAS A AND M UNIVERSITY AT GALVESTON POLICE DEPARTMENT - MITCHELL CAMPUS,0,No,29.314604100000000,-94.817466300000007,West Galveston Bay,img/police.png
-1,,GALVESTON,BAYOU VISTA,,,,BAYOU VISTA POLICE DEPARTMENT,1,Yes,29.329018500000000,-94.934189500000002,West Galveston Bay,img/police.png
-1,,GALVESTON,HITCHCOCK,,,,HITCHCOCK POLICE DEPARTMENT,0,No,29.348335899999999,-95.018868999999995,West Galveston Bay,img/police.png
-1,,GALVESTON,SANTA FE,,,,GALVESTON COUNTY CONSTABLE - PRECINCT 4,0,No,29.368888599999998,-95.076019599999995,West Galveston Bay,img/police.png
-1,,GALVESTON,SANTA FE,,,,SANTA FE POLICE DEPARTMENT,0,No,29.370790000000000,-95.081364899999997,West Galveston Bay,img/police.png
-1,,GALVESTON,LA MARQUE,,,,LA MARQUE CITY FIRE MARSHALS OFFICE,0,No,29.368866900000000,-94.971027199999995,West Galveston Bay,img/police.png
-1,,GALVESTON,LA MARQUE,,,,LA MARQUE POLICE DEPARTMENT,0,No,29.374430199999999,-94.971372000000002,West Galveston Bay,img/police.png
-1,,GALVESTON,LA MARQUE,,,,LA MARQUE INDEPENDENT SCHOOL DISTRICT POLICE,0,No,29.375697899999999,-94.993780200000003,West Galveston Bay,img/police.png
-1,,GALVESTON,LA MARQUE,,,,GALVESTON COUNTY CONSTABLE - PRECINCT 3,0,No,29.377267499999999,-94.992358699999997,West Galveston Bay,img/police.png
-1,,GALVESTON,SANTA FE,,,,SANTA FE INDEPENDENT SCHOOL DISTRICT POLICE DEPARTMENT - SANTA FE JUNIOR HIGH SCHOOL,0,No,29.381819100000001,-95.107467600000007,West Galveston Bay,img/police.png
-1,,BRAZORIA,ALVIN,,,,HILLCREST VILLAGE CITY MARSHALS OFFICE,1,Yes,29.393170099999999,-95.226182300000005,West Galveston Bay,img/police.png
-1,,GALVESTON,SANTA FE,,,,SANTA FE INDEPENDENT SCHOOL DISTRICT POLICE DEPARTMENT - SANTA FE HIGH SCHOOL,0,No,29.392131899999999,-95.141214599999998,West Galveston Bay,img/police.png
-1,,GALVESTON,TEXAS CITY,,,,GALVESTON COUNTY CONSTABLE - PRECINCT 5,0,No,29.384272800000002,-94.931535999999994,West Galveston Bay,img/police.png
-1,,BRAZORIA,ALVIN,,,,ALVIN COMMUNITY COLLEGE POLICE DEPARTMENT,0,No,29.396896600000002,-95.240228400000007,West Galveston Bay,img/police.png
-1,,GALVESTON,TEXAS CITY,,,,TEXAS DEPARTMENT OF PUBLIC SAFETY - HIGHWAY PATROL REGION 2 DISTRICT A SERGEANT 0 AREA 6,0,No,29.395435599999999,-95.004162800000003,West Galveston Bay,img/police.png
-1,,GALVESTON,TEXAS CITY,,,,COLLEGE OF THE MAINLAND POLICE DEPARTMENT,0,No,29.395557700000001,-95.000465300000002,West Galveston Bay,img/police.png
-1,,GALVESTON,TEXAS CITY,,,,TEXAS CITY INDEPENDENT SCHOOL DISTRICT RESOURCE OFFICER,0,No,29.394190699999999,-94.922078900000002,West Galveston Bay,img/police.png
-1,,GALVESTON,TEXAS CITY,,,,TEXAS CITY POLICE DEPARTMENT,0,No,29.394645600000000,-94.908934700000003,West Galveston Bay,img/police.png
-1,,BRAZORIA,ALVIN,,,,ALVIN POLICE DEPARTMENT,0,No,29.410964000000000,-95.244497600000003,West Galveston Bay,img/police.png
-1,,BRAZORIA,ALVIN,,,,ALVIN INDEPENDENT SCHOOL DISTRICT POLICE DEPARTMENT,0,No,29.440408399999999,-95.273888299999996,West Galveston Bay,img/police.png
-1,,BRAZORIA,MANVEL,,,,MANVEL POLICE DEPARTMENT,1,Yes,29.470271300000000,-95.364182400000004,West Galveston Bay,img/police.png
-1,,BRAZORIA,MANVEL,,,,BRAZORIA COUNTY CONSTABLE - PRECINCT 2,1,Yes,29.472675200000001,-95.370243200000004,West Galveston Bay,img/police.png
-1,,GALVESTON,DICKINSON,,,,DICKINSON POLICE DEPARTMENT,0,No,29.462648099999999,-95.052206799999993,West Galveston Bay,img/police.png
-1,,GALVESTON,FRIENDSWOOD,,,,FRIENDSWOOD POLICE DEPARTMENT,0,No,29.497051500000001,-95.202134999999998,West Galveston Bay,img/police.png
-1,,GALVESTON,LEAGUE CITY,,,,LEAGUE CITY POLICE DEPARTMENT,0,No,29.502366400000000,-95.095703900000004,West Galveston Bay,img/police.png
-1,,GALVESTON,LEAGUE CITY,,,,GALVESTON COUNTY CONSTABLE - PRECINCT 8,0,No,29.503571000000001,-95.104653200000001,West Galveston Bay,img/police.png
-1,,GALVESTON,BACLIFF,,,,GALVESTON COUNTY CONSTABLE - PRECINCT 7,0,No,29.504941800000001,-94.987541500000006,West Galveston Bay,img/police.png
-1,,HARRIS,WEBSTER,,,,WEBSTER POLICE DEPARTMENT,0,No,29.534275500000000,-95.117104299999994,West Galveston Bay,img/police.png
-1,,GALVESTON,KEMAH,,,,KEMAH POLICE DEPARTMENT,0,No,29.534412600000000,-95.015312800000004,West Galveston Bay,img/police.png
-1,,GALVESTON,CLEAR LAKE SHORES,,,,CLEAR LAKE SHORES POLICE DEPARTMENT,1,Yes,29.543309000000001,-95.032401899999996,West Galveston Bay,img/police.png
-1,,HARRIS,NASSAU BAY,,,,NASSAU BAY POLICE DEPARTMENT,1,Yes,29.549148800000001,-95.089703099999994,West Galveston Bay,img/police.png
-1,,BRAZORIA,PEARLAND,,,,PEARLAND POLICE DEPARTMENT,1,Yes,29.558026300000002,-95.289037100000002,West Galveston Bay,img/police.png
-1,,BRAZORIA,PEARLAND,,,,BRAZORIA COUNTY CONSTABLE - PRECINCT 3,0,No,29.562029899999999,-95.284260599999996,West Galveston Bay,img/police.png
-1,,HARRIS,EL LAGO,,,,LAKEVIEW POLICE DEPARTMENT,1,Yes,29.565324600000000,-95.051888599999998,West Galveston Bay,img/police.png
-1,,HARRIS,SEABROOK,,,,SEABROOK POLICE DEPARTMENT,1,Yes,29.564430200000000,-95.024029700000000,West Galveston Bay,img/police.png
-1,,HARRIS,HOUSTON,,,,SAN JACINTO COLLEGE DISTRICT POLICE DEPARTMENT SOUTH CAMPUS,0,No,29.579016899999999,-95.203172800000004,West Galveston Bay,img/police.png
-1,,HARRIS,HOUSTON,,,,HOUSTON POLICE DEPARTMENT - CLEAR LAKE DIVISION,0,No,29.579611199999999,-95.106688899999995,West Galveston Bay,img/police.png
-1,,BRAZORIA,BROOKSIDE VILLAGE,,,,BROOKSIDE VILLAGE POLICE DEPARTMENT,0,No,29.587613300000001,-95.310184199999995,West Galveston Bay,img/police.png
-1,,HARRIS,HOUSTON,,,,UNIVERSITY OF HOUSTON - CLEAR LAKE POLICE DEPARTMENT,0,No,29.582449799999999,-95.098451400000002,West Galveston Bay,img/police.png
-1,,HARRIS,SEABROOK,,,,PASADENA POLICE DEPARTMENT - SUBSTATION,0,No,29.583068200000000,-95.057512799999998,West Galveston Bay,img/police.png
-1,,HARRIS,SHOREACRES,,,,SHOREACRES POLICE DEPARTMENT,1,Yes,29.619891299999999,-95.015208500000000,West Galveston Bay,img/police.png
-1,,HARRIS,PASADENA,,,,SAN JACINTO COLLEGE DISTRICT POLICE DEPARTMENT CENTRAL CAMPUS,0,No,29.660226300000001,-95.114478700000006,West Galveston Bay,img/police.png
-1,,HARRIS,PASADENA,,,,HARRIS COUNTY CONSTABLE - PRECINCT 8,0,No,29.661869200000002,-95.125753000000003,West Galveston Bay,img/police.png
-1,,HARRIS,LA PORTE,,,,LA PORTE FIRE MARSHALS OFFICE,0,No,29.664440200000001,-95.021604499999995,West Galveston Bay,img/police.png
-1,,HARRIS,LA PORTE,,,,LA PORTE POLICE DEPARTMENT,0,No,29.666211700000002,-95.042291899999995,West Galveston Bay,img/police.png
-1,,HARRIS,LA PORTE,,,,MORGANS POINT POLICE DEPARTMENT,0,No,29.672023599999999,-95.006689499999993,West Galveston Bay,img/police.png
-1,,HARRIS,DEER PARK,,,,DEER PARK POLICE DEPARTMENT,0,No,29.686610300000002,-95.122671400000002,West Galveston Bay,img/police.png