NAME,ADDRESS,CITY,STATE,ZIP,TYPE,STATUS,COUNTY,EVAC_CAP,POST_CAP,SFHA,In_SFHA,lat,lng,Watershed,logo_url
CLEAR CREEK INDEPENDENT SCHOOL DISTRICT,2425 EAST MAIN STREET,LEAGUE CITY,TX,77573,EVAC,OPEN,GALVESTON,100,50,0,No,29.52588762,-95.07186763,West Galveston Bay,img/shelters.png
FIRST PRESBYTERIAN CHURCH,2930 EAST BROADWAY,PEARLAND,TX,77581,EVAC,OPEN,BRAZORIA,400,200,1,Yes,29.55728169,-95.26792894,West Galveston Bay,img/shelters.png
ABUNDANT LIFE CHRISTIAN CENTER,601 DELANY ROAD,LA MARQUE,TX,77568,EVAC,OPEN,GALVESTON,800,400,0,No,29.38073981,-95.01902139,West Galveston Bay,img/shelters.png
KNIGHTS OF COLUMBUS COUNCIL  8494,4889 WEST MAIN STREET (FM518),LEAGUE CITY,TX,77573,EVAC,OPEN,GALVESTON,100,50,0,No,29.48956794,-95.14832151,West Galveston Bay,img/shelters.png
NASSAU BAY BAPTIST CHURCH,18131 NASSAU BAY DR,HOUSTON,TX,77058,EVAC,OPEN,HARRIS,200,160,1,Yes,29.54485382,-95.09938833,West Galveston Bay,img/shelters.png
"CROSBY MIDDLE SCHOOL, MOONEY GYM",7805 NEVILLE,HITCHCOCK,TX,77563,POST,OPEN,GALVESTON,632,316,1,Yes,29.34608962,-95.01613347,West Galveston Bay,img/shelters.png
BALL HIGH SCHOOL,4115 AVE O,GALVESTON,TX,77550,POST,OPEN,GALVESTON,0,1433,1,Yes,29.28751813,-94.81161669,West Galveston Bay,img/shelters.png
SEABROOK COMMUNITY HOUSE CENTER,1210 ANDERS,SEABROOK,TX,77586,EVAC,OPEN,HARRIS,140,70,1,Yes,29.56400242,-95.02485255,West Galveston Bay,img/shelters.png
FRIENDSWOOD UNITED METHODIST CHURCH,204 W EDGEWOOD,FRIENDSWOOD,TX,77546,EVAC,OPEN,GALVESTON,250,183,0,No,29.53404473,-95.20929191,West Galveston Bay,img/shelters.png
UNIVERSITY BAPTIST CHURCH,16106 MIDDLEBROOK DR,HOUSTON,TX,77059,EVAC,OPEN,HARRIS,200,130,0,No,29.59329676,-95.10401129,West Galveston Bay,img/shelters.png
WESTWOOD ELEMENTARY SCHOOL,506 WEST EDGEWOOD DR,FRIENDSWOOD,TX,77546,EVAC,OPEN,GALVESTON,100,215,0,No,29.52830144,-95.21298286,West Galveston Bay,img/shelters.png
FRITZ BARNETT INTERMEDIATE SCHOOL,4135 WARPATH,SANTA FE,TX,77510,POST,OPEN,GALVESTON,1014,507,0,No,29.38152135,-95.10735445,West Galveston Bay,img/shelters.png
GLORIA DEI LUTHERAN CHURCH,18220 UPPER BAY ROAD,HOUSTON,TX,77058,EVAC,OPEN,HARRIS,250,185,0,No,29.54768943,-95.08904686,West Galveston Bay,img/shelters.png
FIRST CHRISTIAN CHURCH (DISCIPLES OF CHRIST),2400 21ST ST NORTH,TEXAS CITY,TX,77590,BOTH,OPEN,GALVESTON,108,54,0,No,29.40729,-94.92475299,West Galveston Bay,img/shelters.png
GALVESTON COUNTY MUNICIPAL UTILITY DISTRICT NO. 12,2929 HIGHWAY 6,BAYOU VISTA,TX,77563,BOTH,OPEN,GALVESTON,180,90,1,Yes,29.32903216,-94.93414869,West Galveston Bay,img/shelters.png
FIRST BAPTIST CHURCH OF TEXAS CITY,1400 NINTH AVE NORTH,TEXAS CITY,TX,77590,EVAC,OPEN,GALVESTON,300,137,0,No,29.39465723,-94.91549627,West Galveston Bay,img/shelters.png
BAYSHORE BAPTIST CHURCH,11315 SPENCER HWY,LA PORTE,TX,77571,EVAC,OPEN,HARRIS,208,104,0,No,29.66630243,-95.05457448,West Galveston Bay,img/shelters.png
HITCHCOCK HIGH SCHOOL,6625 FM 2004,HITCHCOCK,TX,77563,POST,OPEN,GALVESTON,676,338,0,No,29.34911268,-95.03020332,West Galveston Bay,img/shelters.png
CLEARLAKE CHURCH OF THE NAZARENE,14310 GALVESTON ROAD,WEBSTER,TX,77598,EVAC,OPEN,HARRIS,319,159,0,No,29.57520824,-95.15398152,West Galveston Bay,img/shelters.png
PEACE LUTHERAN CHURCH,6435 FAIRMONT PKWY,PASADENA,TX,77505,POST,OPEN,HARRIS,0,125,0,No,29.65100136,-95.1401474,West Galveston Bay,img/shelters.png
LIVING STONES CHURCH,1407 VICTORY LANE,ALVIN,TX,77511,EVAC,OPEN,BRAZORIA,600,0,1,Yes,29.45332019,-95.22846613,West Galveston Bay,img/shelters.png
GRACE COMMUNITY CHURCH,14325 CRESCENT LANDING DR,HOUSTON,TX,77062,EVAC,OPEN,HARRIS,100,200,0,No,29.57977669,-95.15129427,West Galveston Bay,img/shelters.png
FIRST UNITED METHODIST CHURCH,2314 GRAND BOULEVARD,PEARLAND,TX,77581,EVAC,OPEN,BRAZORIA,250,125,0,No,29.56515964,-95.28427092,West Galveston Bay,img/shelters.png
CLEAR LAKE PRESBYTERIAN CHURCH,1511 EL DORADO BLVD,HOUSTON,TX,77062,EVAC,OPEN,HARRIS,100,96,0,No,29.56910522,-95.13237304,West Galveston Bay,img/shelters.png
BAY AREA COMMUNITY CENTER,5002 NASA ROAD 1,SEABROOK,TX,77586,EVAC,OPEN,HARRIS,100,50,1,Yes,29.56854376,-95.06679243,West Galveston Bay,img/shelters.png
SAINT HYACINTH CATHOLIC CHURCH,2921 CENTER STREET,DEER PARK,TX,77536,EVAC,OPEN,HARRIS,450,225,0,No,29.68490939,-95.12209846,West Galveston Bay,img/shelters.png
GOLDEN ACRES BAPTIST CHURCH CLC,2812 PANSY STREET,PASADENA,TX,77503,EVAC,OPEN,HARRIS,100,0,0,No,29.66993788,-95.16335413,West Galveston Bay,img/shelters.png
MANVEL JUNIOR HIGH SCHOOL,7380 LEWIS LANE,MANVEL,TX,77578,EVAC,OPEN,BRAZORIA,600,300,0,No,29.4725104,-95.35386615,West Galveston Bay,img/shelters.png
GALVESTON UNIFIED SHELTER,8500 AIRPORT BLVD,GALVESTON,TX,77554,POST,OPEN,GALVESTON,0,350,1,Yes,29.26627216,-94.8543531,West Galveston Bay,img/shelters.png
"CITY OF TEXAS CITY, NESSLER CENTER",2010 5TH AVE NORTH,TEXAS CITY,TX,77590,EVAC,OPEN,GALVESTON,170,157,0,No,29.39063387,-94.9242099,West Galveston Bay,img/shelters.png
TAYLOR LAKE CHRISTIAN CHURCH,1730 OLD KIRBY ROAD,SEABROOK,TX,77586,POST,OPEN,HARRIS,0,43,1,Yes,29.58770072,-95.0488204,West Galveston Bay,img/shelters.png
BAILEY ROAD CAMPUS,4719 BAILEY RD,PEARLAND,TX,77581,POST,OPEN,BRAZORIA,0,318,1,Yes,29.53274534,-95.29464851,West Galveston Bay,img/shelters.png
FIRST UNITED METHODIST CHURCH,9601 WEST FAIRMONT PARKWAY,LA PORTE,TX,77571,POST,OPEN,HARRIS,0,122,0,No,29.6519903,-95.089741,West Galveston Bay,img/shelters.png
GALVESTON ISLAND TENT SHELTER,5200 AVE N,GALVESTON,TX,77550,POST,OPEN,GALVESTON,0,750,1,Yes,29.28644312,-94.82400112,West Galveston Bay,img/shelters.png
GALVESTON ISLAND TENT SHELTER II,5200 AVE N,GALVESTON,TX,77550,POST,OPEN,GALVESTON,0,500,1,Yes,29.28672866,-94.82313024,West Galveston Bay,img/shelters.png
BAY HARBOR METHODIST CHURCH,3459 DEKE SLAYTON EXPRESSWAY,LEAGUE CITY,TX,77573,EVAC,OPEN,GALVESTON,100,50,0,No,29.52537315,-95.04896903,West Galveston Bay,img/shelters.png
