OID,LocationID,County,City,FullName,OwnerType,FSSName,Name_1,SFHA,In_SFHA,lat,lng,Watershed,logo_url
-1,,,JAMAICA BEACH,,,,,1,Yes,29.112681561999999,-95.090619872000005,,img/substations.png
-1,,,VILLAGE OF TIKI ISLAND,,,,,1,Yes,29.227713151000000,-94.910646783999994,,img/substations.png
-1,,,HOSKINS,,,,,1,Yes,29.233779160000001,-95.187022487999997,,img/substations.png
-1,,,LIVERPOOL,,,,,1,Yes,29.253018901000001,-95.220335810999998,,img/substations.png
-1,,,LIVERPOOL,,,,,1,Yes,29.256272284000001,-95.211663709000007,,img/substations.png
-1,,,GALVESTON,,,,,1,Yes,29.260626350999999,-94.853408057999999,,img/substations.png
-1,,,LIVERPOOL,,,,,0,No,29.279192869999999,-95.294992856999997,,img/substations.png
-1,,,GALVESTON,,,,,1,Yes,29.296213588000001,-94.826990554999995,,img/substations.png
-1,,,GALVESTON,,,,,1,Yes,29.302854153999998,-94.797409430000002,,img/substations.png
-1,,,VILLAGE OF TIKI ISLAND,,,,,1,Yes,29.304248653999998,-94.901006183999996,,img/substations.png
-1,,,HITCHCOCK,,,,,0,No,29.347501769000001,-95.015917188000003,,img/substations.png
-1,,,TEXAS CITY,,,,,0,No,29.362110926000000,-94.930300316000000,,img/substations.png
-1,,,ALGOA,,,,,0,No,29.362849681000000,-95.203888264000000,,img/substations.png
-1,,,TEXAS CITY,,,,,0,No,29.363626628999999,-94.924527170000005,,img/substations.png
-1,,,LA MARQUE,,,,,0,No,29.365906126999999,-94.965411223999993,,img/substations.png
-1,,,LA MARQUE,,,,,0,No,29.366196028000001,-94.966698984999994,,img/substations.png
-1,,,LA MARQUE,,,,,0,No,29.367099747000001,-94.965657347000004,,img/substations.png
-1,,,LA MARQUE,,,,,0,No,29.367124930999999,-94.965008726999997,,img/substations.png
-1,,,TEXAS CITY,,,,,0,No,29.367136086999999,-94.915830822000004,,img/substations.png
-1,,,NOT AVAILABLE,,,,,0,No,29.368863439999998,-94.914297619999999,,img/substations.png
-1,,,TEXAS CITY,,,,,0,No,29.370594206000000,-94.911284395999999,,img/substations.png
-1,,,HITCHCOCK,,,,,0,No,29.370902937000000,-95.020602542999995,,img/substations.png
-1,,,TEXAS CITY,,,,,0,No,29.373260419000001,-94.914862389999996,,img/substations.png
-1,,,TEXAS CITY,,,,,0,No,29.376446078000001,-94.907729176000004,,img/substations.png
-1,,,TEXAS CITY,,,,,0,No,29.376766553000000,-94.901888326999995,,img/substations.png
-1,,,NOT AVAILABLE,,,,,0,No,29.376935558000000,-94.897780057999995,,img/substations.png
-1,,,TEXAS CITY,,,,,0,No,29.378185970000001,-94.934347383000002,,img/substations.png
-1,,,LA MARQUE,,,,,0,No,29.378709047000001,-94.947560527999997,,img/substations.png
-1,,,LA MARQUE,,,,,0,No,29.378985187000001,-94.943850935000000,,img/substations.png
-1,,,LA MARQUE,,,,,0,No,29.379570939000001,-94.944135189999997,,img/substations.png
-1,,,TEXAS CITY,,,,,0,No,29.379632698999998,-94.934588786999996,,img/substations.png
-1,,,TEXAS CITY,,,,,0,No,29.380152677000002,-94.922981999000001,,img/substations.png
-1,,,NOT AVAILABLE,,,,,0,No,29.380182447999999,-94.897257596000003,,img/substations.png
-1,,,TEXAS CITY,,,,,0,No,29.381488227999998,-94.901545214999999,,img/substations.png
-1,,,TEXAS CITY,,,,,0,No,29.383047713000000,-94.892686910999998,,img/substations.png
-1,,,NOT AVAILABLE,,,,,0,No,29.383836030000001,-94.914481140000007,,img/substations.png
-1,,,LA MARQUE,,,,,0,No,29.389462307999999,-94.949956158999996,,img/substations.png
-1,,,SANTA FE,,,,,0,No,29.391707223000001,-95.090553037000006,,img/substations.png
-1,,,SANTA FE,,,,,0,No,29.392231115000001,-95.090653971999998,,img/substations.png
-1,,,SANTA FE,,,,,0,No,29.392300981999998,-95.090611488999997,,img/substations.png
-1,,,LA MARQUE,,,,,0,No,29.403971123000002,-94.995150588000001,,img/substations.png
-1,,,TEXAS CITY,,,,,0,No,29.409032708000002,-94.913601657000001,,img/substations.png
-1,,,LA MARQUE,,,,,0,No,29.425630138999999,-94.963807756999998,,img/substations.png
-1,,,ALVIN,,,,,0,No,29.433312663999999,-95.249440810999999,,img/substations.png
-1,,,ALVIN,,,,,0,No,29.433831076000001,-95.253916707000002,,img/substations.png
-1,,,ALVIN,,,,,0,No,29.434390532999998,-95.244371713000007,,img/substations.png
-1,,,MANVEL,,,,,0,No,29.456208063999998,-95.308312529999995,,img/substations.png
-1,,,NOT AVAILABLE,,,,,1,Yes,29.456781663000001,-95.354768109999995,,img/substations.png
-1,,,MANVEL,,,,,0,No,29.457804500000002,-95.308269522000003,,img/substations.png
-1,,,ALVIN,,,,,1,Yes,29.459060012999998,-95.257546961000003,,img/substations.png
-1,,,NOT AVAILABLE,,,,,1,Yes,29.460345031999999,-95.257854968000004,,img/substations.png
-1,,,DICKINSON,,,,,1,Yes,29.461136251999999,-95.056917286000001,,img/substations.png
-1,,,ALVIN,,,,,1,Yes,29.461521218000001,-95.258222317999994,,img/substations.png
-1,,,ALVIN,,,,,1,Yes,29.463809164000001,-95.245765836000004,,img/substations.png
-1,,,FRIENDSWOOD,,,,,0,No,29.468465991999999,-95.179171991000004,,img/substations.png
-1,,,ALVIN,,,,,1,Yes,29.483244576000001,-95.252573995000006,,img/substations.png
-1,,,BACLIFF,,,,,0,No,29.487515784999999,-94.982421770000002,,img/substations.png
-1,,,LEAGUE CITY,,,,,0,No,29.488354041000001,-95.133986147000002,,img/substations.png
-1,,,IOWA COLONY,,,,,0,No,29.490829040000001,-95.430226773000001,,img/substations.png
-1,,,FRIENDSWOOD,,,,,0,No,29.499148708000000,-95.201336436999995,,img/substations.png
-1,,,LEAGUE CITY,,,,,0,No,29.500964306000000,-95.082080575000006,,img/substations.png
-1,,,WEBSTER,,,,,1,Yes,29.515011021999999,-95.128748834000007,,img/substations.png
-1,,,WEBSTER,,,,,1,Yes,29.515101524999999,-95.128518940000006,,img/substations.png
-1,,,CLEAR LAKE SHORES,,,,,0,No,29.515224838999998,-95.042315135999999,,img/substations.png
-1,,,WEBSTER,,,,,0,No,29.522835510000000,-95.153476158999993,,img/substations.png
-1,,,WEBSTER,,,,,0,No,29.527809029000000,-95.106203898999993,,img/substations.png
-1,,,WEBSTER,,,,,0,No,29.528703149999998,-95.104719099999997,,img/substations.png
-1,,,KEMAH,,,,,1,Yes,29.537905307999999,-95.026027931000002,,img/substations.png
-1,,,KEMAH,,,,,1,Yes,29.538166990000001,-95.026468433000005,,img/substations.png
-1,,,WEBSTER,,,,,0,No,29.538767648000000,-95.107499214000001,,img/substations.png
-1,,,FRIENDSWOOD,,,,,0,No,29.552252870000000,-95.174904541999993,,img/substations.png
-1,,,FRESNO,,,,,0,No,29.552396801000000,-95.389275148999999,,img/substations.png
-1,,,PEARLAND,,,,,0,No,29.554066517999999,-95.257305173000006,,img/substations.png
-1,,,CLEAR LAKE CITY,,,,,0,No,29.556379877000001,-95.150744923000005,,img/substations.png
-1,,,CLEAR LAKE CITY,,,,,0,No,29.556417742000001,-95.150965233999997,,img/substations.png
-1,,,BROOKSIDE VILLAGE,,,,,0,No,29.560234419000000,-95.322572436000002,,img/substations.png
-1,,,CLEAR LAKE CITY,,,,,0,No,29.561807249000001,-95.141387266999999,,img/substations.png
-1,,,NASSAU BAY,,,,,0,No,29.563112584999999,-95.085229709999993,,img/substations.png
-1,,,CLEAR LAKE CITY,,,,,0,No,29.564989245000000,-95.161843851000000,,img/substations.png
-1,,,CLEAR LAKE CITY,,,,,0,No,29.565206729000000,-95.161647196000004,,img/substations.png
-1,,,CLEAR LAKE CITY,,,,,0,No,29.578508308000000,-95.098739710000004,,img/substations.png
-1,,,FRESNO,,,,,0,No,29.579515954000001,-95.487145037000005,,img/substations.png
-1,,,FRESNO,,,,,0,No,29.580557602999999,-95.446820290999995,,img/substations.png
-1,,,MISSOURI CITY,,,,,0,No,29.586456286000001,-95.533821653999993,,img/substations.png
-1,,,MISSOURI CITY,,,,,0,No,29.586760857000002,-95.534302306000001,,img/substations.png
-1,,,FRIENDSWOOD,,,,,0,No,29.587621951999999,-95.181166259999998,,img/substations.png
-1,,,FRIENDSWOOD,,,,,0,No,29.587814488999999,-95.181751458999997,,img/substations.png
-1,,,FRIENDSWOOD,,,,,0,No,29.587970437999999,-95.181788539999999,,img/substations.png
-1,,,FRIENDSWOOD,,,,,0,No,29.588329006999999,-95.180250717000007,,img/substations.png
-1,,,PEARLAND,,,,,0,No,29.589352304999998,-95.240203089999994,,img/substations.png
-1,,,SHOREACRES,,,,,1,Yes,29.597684115000000,-95.031302202999996,,img/substations.png
-1,,,PEARLAND,,,,,1,Yes,29.599135122000000,-95.287423838999999,,img/substations.png
-1,,,BROOKSIDE VILLAGE,,,,,1,Yes,29.599418640000000,-95.325390732000002,,img/substations.png
-1,,,BROOKSIDE VILLAGE,,,,,1,Yes,29.599463848999999,-95.325345522000006,,img/substations.png
-1,,,SHOREACRES,,,,,0,No,29.601434680000001,-95.014431803999997,,img/substations.png
-1,,,SHOREACRES,,,,,1,Yes,29.602198486999999,-95.007557542000001,,img/substations.png
-1,,,NOT AVAILABLE,,,,,0,No,29.608483750000001,-95.126616662999993,,img/substations.png
-1,,,TAYLOR LAKE VILLAGE,,,,,1,Yes,29.609417800999999,-95.049549939000002,,img/substations.png
-1,,,SOUTH HOUSTON,,,,,0,No,29.609907210999999,-95.184390472000004,,img/substations.png
-1,,,BAYSIDE TERRACE,,,,,1,Yes,29.616225794999998,-95.036699002999995,,img/substations.png
-1,,,BAYSIDE TERRACE,,,,,1,Yes,29.623168281000002,-95.041916760000007,,img/substations.png
-1,,,BAYSIDE TERRACE,,,,,0,No,29.623336564999999,-95.045386469999997,,img/substations.png
-1,,,TAYLOR LAKE VILLAGE,,,,,0,No,29.624016786999999,-95.087953835999997,,img/substations.png
-1,,,TAYLOR LAKE VILLAGE,,,,,0,No,29.625621353000000,-95.068209956000004,,img/substations.png
-1,,,BAYSIDE TERRACE,,,,,0,No,29.626225489999999,-95.046641613999995,,img/substations.png
-1,,,BAYSIDE TERRACE,,,,,1,Yes,29.626464426999998,-95.038848193999996,,img/substations.png
-1,,,BAYSIDE TERRACE,,,,,0,No,29.626848276000000,-95.048443105999993,,img/substations.png
-1,,,BAYSIDE TERRACE,,,,,0,No,29.628313289000001,-95.064820440999995,,img/substations.png
-1,,,BAYSIDE TERRACE,,,,,0,No,29.628737143999999,-95.045046201000005,,img/substations.png
-1,,,DEER PARK,,,,,0,No,29.629660361999999,-95.151120813999995,,img/substations.png
-1,,,TAYLOR LAKE VILLAGE,,,,,0,No,29.633850064000001,-95.084415019999994,,img/substations.png
-1,,,BAYSIDE TERRACE,,,,,0,No,29.634247280000000,-95.055927651999994,,img/substations.png
-1,,,BAYSIDE TERRACE,,,,,0,No,29.639687905999999,-95.055369096999996,,img/substations.png
-1,,,LA PORTE,,,,,0,No,29.642423450999999,-95.059427354999997,,img/substations.png
-1,,,BAYSIDE TERRACE,,,,,0,No,29.643247949999999,-95.040441448999999,,img/substations.png
-1,,,LA PORTE,,,,,0,No,29.647659691000001,-95.055414709999994,,img/substations.png
-1,,,DEER PARK,,,,,0,No,29.649419739999999,-95.102768908000002,,img/substations.png
-1,,,LA PORTE,,,,,0,No,29.649822478000001,-95.044039499999997,,img/substations.png
-1,,,DEER PARK,,,,,0,No,29.653456917000000,-95.154464622000006,,img/substations.png
-1,,,LA PORTE,,,,,0,No,29.654622991000000,-95.040238161999994,,img/substations.png
-1,,,LA PORTE,,,,,0,No,29.664838883000002,-95.016126255000003,,img/substations.png
-1,,,DEER PARK,,,,,0,No,29.692080168000000,-95.088802725999997,,img/substations.png
-1,,,DEER PARK,,,,,0,No,29.692385158000000,-95.088852583999994,,img/substations.png
-1,,,DEER PARK,,,,,0,No,29.692822880000001,-95.088625860999997,,img/substations.png
-1,,,DEER PARK,,,,,0,No,29.693101277000000,-95.088084534000004,,img/substations.png
-1,,,DEER PARK,,,,,0,No,29.694389790999999,-95.088111976999997,,img/substations.png
-1,,,DEER PARK,,,,,0,No,29.694720262000001,-95.073209431999999,,img/substations.png
-1,,,DEER PARK,,,,,0,No,29.694784001999999,-95.073146019999996,,img/substations.png