OID,LocationID,County,City,FullName,OwnerType,FSSName,Name_1,SFHA,In_SFHA,lat,lng,Watershed,logo_url
-1,,JEFFERSON,SABINE PASS,,,,Sabine Lake,0,No,29.730038321999999,-93.897496083999997,Sabine Lake,img/public_schools.png
-1,,JEFFERSON,SABINE PASS,,,,Sabine Lake,0,No,29.732930000000000,-93.894869999999997,Sabine Lake,img/public_schools.png
-1,,CHAMBERS,WINNIE,,,,Sabine Lake,0,No,29.800842402000001,-94.379803093999996,Sabine Lake,img/public_schools.png
-1,,CHAMBERS,WINNIE,,,,Sabine Lake,0,No,29.804360043999999,-94.383053881999999,Sabine Lake,img/public_schools.png
-1,,CHAMBERS,WINNIE,,,,Sabine Lake,0,No,29.805200063000001,-94.383097652999993,Sabine Lake,img/public_schools.png
-1,,CHAMBERS,WINNIE,,,,Sabine Lake,0,No,29.805380177000000,-94.380744144999994,Sabine Lake,img/public_schools.png
-1,,JEFFERSON,HAMSHIRE,,,,Sabine Lake,0,No,29.862640874000000,-94.314399655000003,Sabine Lake,img/public_schools.png
-1,,JEFFERSON,PORT ARTHUR,,,,Sabine Lake,0,No,29.870940999999998,-93.949132000000006,Sabine Lake,img/public_schools.png
-1,,JEFFERSON,PORT ARTHUR,,,,Sabine Lake,0,No,29.874039578000001,-93.934187241999993,Sabine Lake,img/public_schools.png
-1,,JEFFERSON,PORT ARTHUR,,,,Sabine Lake,0,No,29.874113130000001,-93.934192048000000,Sabine Lake,img/public_schools.png
-1,,JEFFERSON,PORT ARTHUR,,,,Sabine Lake,0,No,29.875290639999999,-93.942768236000006,Sabine Lake,img/public_schools.png
-1,,JEFFERSON,PORT ARTHUR,,,,Sabine Lake,0,No,29.875315000000001,-93.943489999999997,Sabine Lake,img/public_schools.png
-1,,JEFFERSON,PORT ARTHUR,,,,Sabine Lake,0,No,29.890405341000001,-93.923144540999999,Sabine Lake,img/public_schools.png
-1,,JEFFERSON,PORT ARTHUR,,,,Sabine Lake,1,Yes,29.893904230000000,-93.988715585999998,Sabine Lake,img/public_schools.png
-1,,JEFFERSON,PORT ARTHUR,,,,Sabine Lake,0,No,29.900140004000001,-94.018342115999999,Sabine Lake,img/public_schools.png
-1,,JEFFERSON,PORT ARTHUR,,,,Sabine Lake,1,Yes,29.902675259999999,-94.038198914000006,Sabine Lake,img/public_schools.png
-1,,JEFFERSON,PORT ARTHUR,,,,Sabine Lake,0,No,29.903697234999999,-93.919723230000002,Sabine Lake,img/public_schools.png
-1,,JEFFERSON,PORT ARTHUR,,,,Sabine Lake,0,No,29.906089085000001,-93.910677151000002,Sabine Lake,img/public_schools.png
-1,,JEFFERSON,PORT ARTHUR,,,,Sabine Lake,0,No,29.906821999999998,-93.921476999999996,Sabine Lake,img/public_schools.png
-1,,JEFFERSON,PORT ARTHUR,,,,Sabine Lake,0,No,29.915255999999999,-93.930769999999995,Sabine Lake,img/public_schools.png
-1,,JEFFERSON,PORT ARTHUR,,,,Sabine Lake,0,No,29.916653618000002,-93.905008292999995,Sabine Lake,img/public_schools.png
-1,,JEFFERSON,PORT ARTHUR,,,,Sabine Lake,0,No,29.917063657000000,-93.941775852999996,Sabine Lake,img/public_schools.png
-1,,JEFFERSON,PORT ARTHUR,,,,Sabine Lake,0,No,29.917319830000000,-93.909335893000005,Sabine Lake,img/public_schools.png
-1,,JEFFERSON,PORT ARTHUR,,,,Sabine Lake,0,No,29.917878132999999,-93.903787993999998,Sabine Lake,img/public_schools.png
-1,,JEFFERSON,BEAUMONT,,,,Sabine Lake,0,No,29.920187330000001,-94.252168784999995,Sabine Lake,img/public_schools.png
-1,,JEFFERSON,BEAUMONT,,,,Sabine Lake,0,No,29.921182739999999,-94.250486018999993,Sabine Lake,img/public_schools.png
-1,,JEFFERSON,PORT ARTHUR,,,,Sabine Lake,0,No,29.922130347000000,-93.911726537000007,Sabine Lake,img/public_schools.png
-1,,JEFFERSON,PORT ARTHUR,,,,Sabine Lake,0,No,29.922167344000002,-93.925467975999993,Sabine Lake,img/public_schools.png
-1,,JEFFERSON,BEAUMONT,,,,Sabine Lake,0,No,29.923288193000001,-94.249348655000006,Sabine Lake,img/public_schools.png
-1,,JEFFERSON,PORT ARTHUR,,,,Sabine Lake,1,Yes,29.926839838999999,-93.948907126999998,Sabine Lake,img/public_schools.png
-1,,JEFFERSON,PORT ARTHUR,,,,Sabine Lake,0,No,29.947751750999998,-93.895702545999995,Sabine Lake,img/public_schools.png
-1,,JEFFERSON,GROVES,,,,Sabine Lake,0,No,29.949546766000001,-93.914192634000003,Sabine Lake,img/public_schools.png
-1,,JEFFERSON,GROVES,,,,Sabine Lake,0,No,29.956132754999999,-93.926090560999995,Sabine Lake,img/public_schools.png
-1,,JEFFERSON,GROVES,,,,Sabine Lake,0,No,29.958085393000001,-93.924620270000005,Sabine Lake,img/public_schools.png
-1,,JEFFERSON,NEDERLAND,,,,Sabine Lake,0,No,29.959471758999999,-93.991541056000003,Sabine Lake,img/public_schools.png
-1,,JEFFERSON,PORT NECHES,,,,Sabine Lake,0,No,29.966821920000001,-93.965470644999996,Sabine Lake,img/public_schools.png
-1,,JEFFERSON,NEDERLAND,,,,Sabine Lake,0,No,29.967718440999999,-94.007444630999998,Sabine Lake,img/public_schools.png
-1,,JEFFERSON,NEDERLAND,,,,Sabine Lake,0,No,29.969551229000000,-94.006456127999996,Sabine Lake,img/public_schools.png
-1,,JEFFERSON,NEDERLAND,,,,Sabine Lake,0,No,29.969552000000000,-94.006569999999996,Sabine Lake,img/public_schools.png
-1,,JEFFERSON,PORT ARTHUR,,,,Sabine Lake,0,No,29.969706090999999,-94.006375684000005,Sabine Lake,img/public_schools.png
-1,,JEFFERSON,NEDERLAND,,,,Sabine Lake,0,No,29.971397290999999,-93.995292109999994,Sabine Lake,img/public_schools.png
-1,,JEFFERSON,NEDERLAND,,,,Sabine Lake,0,No,29.972968193000000,-93.987511835000006,Sabine Lake,img/public_schools.png
-1,,JEFFERSON,NEDERLAND,,,,Sabine Lake,0,No,29.978469236999999,-93.995535693999997,Sabine Lake,img/public_schools.png
-1,,JEFFERSON,NEDERLAND,,,,Sabine Lake,0,No,29.978890768999999,-93.982984256999998,Sabine Lake,img/public_schools.png
-1,,JEFFERSON,PORT NECHES,,,,Sabine Lake,0,No,29.979644029999999,-93.959457845000003,Sabine Lake,img/public_schools.png
-1,,JEFFERSON,PORT NECHES,,,,Sabine Lake,0,No,29.980730337000001,-93.958272191000006,Sabine Lake,img/public_schools.png
-1,,JEFFERSON,NEDERLAND,,,,Sabine Lake,0,No,29.982055476999999,-94.011981492999993,Sabine Lake,img/public_schools.png
-1,,JEFFERSON,BEAUMONT,,,,Sabine Lake,0,No,29.993670000000002,-94.036820000000006,Sabine Lake,img/public_schools.png
-1,,JEFFERSON,BEAUMONT,,,,Sabine Lake,0,No,30.007400000000001,-94.043490000000006,Sabine Lake,img/public_schools.png
-1,,JEFFERSON,BEAUMONT,,,,Sabine Lake,0,No,30.034990770000000,-94.087956902000002,Sabine Lake,img/public_schools.png
-1,,JEFFERSON,BEAUMONT,,,,Sabine Lake,0,No,30.041350311999999,-94.178637457999997,Sabine Lake,img/public_schools.png
-1,,JEFFERSON,BEAUMONT,,,,Sabine Lake,0,No,30.042022209999999,-94.123985606000005,Sabine Lake,img/public_schools.png
-1,,JEFFERSON,BEAUMONT,,,,Sabine Lake,0,No,30.042604865000001,-94.084866945000002,Sabine Lake,img/public_schools.png
-1,,JEFFERSON,BEAUMONT,,,,Sabine Lake,0,No,30.042819572999999,-94.110684355000004,Sabine Lake,img/public_schools.png
-1,,JEFFERSON,CHINA,,,,Sabine Lake,0,No,30.043460000000000,-94.334729999999993,Sabine Lake,img/public_schools.png
-1,,HARDIN,SOUR LAKE TX,,,,Sabine Lake,0,No,30.044109978000002,-94.341151858999993,Sabine Lake,img/public_schools.png
-1,,JEFFERSON,BEAUMONT,,,,Sabine Lake,0,No,30.044316741999999,-94.084202255999998,Sabine Lake,img/public_schools.png
-1,,JEFFERSON,BEAUMONT,,,,Sabine Lake,0,No,30.045999999999999,-94.111000000000004,Sabine Lake,img/public_schools.png
-1,,JEFFERSON,BEAUMONT,,,,Sabine Lake,0,No,30.051818216000001,-94.118205334999999,Sabine Lake,img/public_schools.png
-1,,JEFFERSON,BEAUMONT,,,,Sabine Lake,0,No,30.063731000000001,-94.124037999999999,Sabine Lake,img/public_schools.png
-1,,JEFFERSON,BEAUMONT,,,,Sabine Lake,0,No,30.064746000000000,-94.096352999999993,Sabine Lake,img/public_schools.png
-1,,JEFFERSON,BEAUMONT,,,,Sabine Lake,0,No,30.069009091000002,-94.101730974000006,Sabine Lake,img/public_schools.png
-1,,JEFFERSON,BEAUMONT,,,,Sabine Lake,0,No,30.069233351000001,-94.107288534000006,Sabine Lake,img/public_schools.png
-1,,JEFFERSON,BEAUMONT,,,,Sabine Lake,0,No,30.070287273000002,-94.189017711000005,Sabine Lake,img/public_schools.png
-1,,JEFFERSON,BEAUMONT,,,,Sabine Lake,0,No,30.072313006000002,-94.125127137999996,Sabine Lake,img/public_schools.png
-1,,JEFFERSON,BEAUMONT,,,,Sabine Lake,0,No,30.073935045999999,-94.186301123999996,Sabine Lake,img/public_schools.png
-1,,JEFFERSON,BEAUMONT,,,,Sabine Lake,0,No,30.079087900000001,-94.196733241999993,Sabine Lake,img/public_schools.png
-1,,JEFFERSON,BEAUMONT,,,,Sabine Lake,0,No,30.079103787000001,-94.154210421000002,Sabine Lake,img/public_schools.png
-1,,JEFFERSON,BEAUMONT,,,,Sabine Lake,0,No,30.080883057000001,-94.125954983000000,Sabine Lake,img/public_schools.png
-1,,JEFFERSON,BEAUMONT,,,,Sabine Lake,0,No,30.083226516000000,-94.130195302000004,Sabine Lake,img/public_schools.png
-1,,JEFFERSON,BEAUMONT,,,,Sabine Lake,0,No,30.084735471999998,-94.145142957000004,Sabine Lake,img/public_schools.png
-1,,JEFFERSON,BEAUMONT,,,,Sabine Lake,0,No,30.084826483000001,-94.145517373999994,Sabine Lake,img/public_schools.png
-1,,JEFFERSON,BEAUMONT,,,,Sabine Lake,0,No,30.087900000000001,-94.120440000000002,Sabine Lake,img/public_schools.png
-1,,JEFFERSON,BEAUMONT,,,,Sabine Lake,0,No,30.088651023000001,-94.165370765000006,Sabine Lake,img/public_schools.png
-1,,JEFFERSON,BEAUMONT,,,,Sabine Lake,0,No,30.089420000000000,-94.137050000000002,Sabine Lake,img/public_schools.png
-1,,JEFFERSON,BEAUMONT,,,,Sabine Lake,0,No,30.090576392999999,-94.172443763000004,Sabine Lake,img/public_schools.png
-1,,JEFFERSON,BEAUMONT,,,,Sabine Lake,0,No,30.101937038999999,-94.161207837000006,Sabine Lake,img/public_schools.png
-1,,JEFFERSON,BEAUMONT,,,,Sabine Lake,0,No,30.102078839000001,-94.137904535000004,Sabine Lake,img/public_schools.png
-1,,JEFFERSON,BEAUMONT,,,,Sabine Lake,0,No,30.117229677000001,-94.138077444999993,Sabine Lake,img/public_schools.png