OID,LocationID,County,City,FullName,OwnerType,FSSName,Name_1,SFHA,In_SFHA,lat,lng,Watershed,logo_url
-1,,,SABINE PASS,,,,,1,Yes,29.762349508000000,-93.929585125000003,,img/substations.png
-1,,,PORT ARTHUR,,,,,0,No,29.850229357000000,-93.973651941000000,,img/substations.png
-1,,,CENTRAL GARDENS,,,,,1,Yes,29.850402504000002,-94.095490574999999,,img/substations.png
-1,,,PORT ARTHUR,,,,,0,No,29.861915182000001,-93.959947647000007,,img/substations.png
-1,,,PORT ARTHUR,,,,,0,No,29.868322149000001,-93.950337379000004,,img/substations.png
-1,,,PORT ARTHUR,,,,,0,No,29.873588495000000,-93.971062798000006,,img/substations.png
-1,,,PORT ARTHUR,,,,,0,No,29.873932906000000,-93.972096445000005,,img/substations.png
-1,,,PORT ARTHUR,,,,,0,No,29.874509664000001,-93.942030372999994,,img/substations.png
-1,,,FANNETT,,,,,0,No,29.878547487999999,-94.272927882000005,,img/substations.png
-1,,,FANNETT,,,,,0,No,29.878908861999999,-94.274966203999995,,img/substations.png
-1,,,PORT ARTHUR,,,,,1,Yes,29.887172458999999,-93.998788693999998,,img/substations.png
-1,,,PORT ARTHUR,,,,,0,No,29.887782388000002,-93.944406427999994,,img/substations.png
-1,,,PORT ARTHUR,,,,,0,No,29.888905582000000,-93.945396627999997,,img/substations.png
-1,,,FANNETT,,,,,0,No,29.895145064000001,-94.225168844999999,,img/substations.png
-1,,,NEDERLAND,,,,,1,Yes,29.900405748000001,-94.005271702000002,,img/substations.png
-1,,,NEDERLAND,,,,,0,No,29.900442686000002,-94.009028786000002,,img/substations.png
-1,,,NEDERLAND,,,,,1,Yes,29.907374058999999,-94.010003522999995,,img/substations.png
-1,,,PORT ARTHUR,,,,,0,No,29.907455475999999,-93.925340195999993,,img/substations.png
-1,,,PORT ARTHUR,,,,,0,No,29.913282326000001,-93.901113668999997,,img/substations.png
-1,,,FANNETT,,,,,0,No,29.916471998999999,-94.155375160999995,,img/substations.png
-1,,,PORT ARTHUR,,,,,0,No,29.924721170000002,-93.940096570999998,,img/substations.png
-1,,,PORT ARTHUR,,,,,1,Yes,29.926432380000001,-93.971423664000000,,img/substations.png
-1,,,GROVES,,,,,0,No,29.930824521000002,-93.899847234000006,,img/substations.png
-1,,,GROVES,,,,,0,No,29.932279917999999,-93.876725476000004,,img/substations.png
-1,,,FANNETT,,,,,1,Yes,29.933009325000000,-94.130904798000003,,img/substations.png
-1,,,GROVES,,,,,0,No,29.933635665000001,-93.903804915999999,,img/substations.png
-1,,,GROVES,,,,,0,No,29.933782045000001,-93.903661154999995,,img/substations.png
-1,,,FANNETT,,,,,1,Yes,29.934844982000001,-94.131256772000000,,img/substations.png
-1,,,GROVES,,,,,1,Yes,29.940740042000002,-93.958414696999995,,img/substations.png
-1,,,GROVES,,,,,1,Yes,29.941406077000000,-93.958356268000003,,img/substations.png
-1,,,GROVES,,,,,0,No,29.945329028000000,-93.920924948000007,,img/substations.png
-1,,,GROVES,,,,,1,Yes,29.945671946000001,-93.889927721999996,,img/substations.png
-1,,,NEDERLAND,,,,,1,Yes,29.953772674000000,-93.971786855000005,,img/substations.png
-1,,,GROVES,,,,,0,No,29.961622550000001,-93.935775754000005,,img/substations.png
-1,,,GROVES,,,,,0,No,29.962668607000001,-93.930455418999998,,img/substations.png
-1,,,GROVES,,,,,0,No,29.963240809999999,-93.938707309999998,,img/substations.png
-1,,,GROVES,,,,,0,No,29.963355089000000,-93.922069801999996,,img/substations.png
-1,,,CENTRAL GARDENS,,,,,0,No,29.965042438000001,-94.049474734000000,,img/substations.png
-1,,,CENTRAL GARDENS,,,,,0,No,29.965808487000000,-94.029089698999996,,img/substations.png
-1,,,GROVES,,,,,0,No,29.966214909000001,-93.932601552999998,,img/substations.png
-1,,,GROVES,,,,,0,No,29.966327814000000,-93.940137215999997,,img/substations.png
-1,,,NEDERLAND,,,,,0,No,29.971590463999998,-93.978695767999994,,img/substations.png
-1,,,CENTRAL GARDENS,,,,,0,No,29.972754806000001,-94.054760645000002,,img/substations.png
-1,,,FANNETT,,,,,1,Yes,29.972923565999999,-94.215312511999997,,img/substations.png
-1,,,CENTRAL GARDENS,,,,,0,No,29.974847302000001,-94.055325375999999,,img/substations.png
-1,,,CENTRAL GARDENS,,,,,0,No,29.975762180000000,-94.055646276999994,,img/substations.png
-1,,,PORT NECHES,,,,,0,No,29.976149157999998,-93.934161063999994,,img/substations.png
-1,,,CENTRAL GARDENS,,,,,0,No,29.976506976000000,-94.056913667000003,,img/substations.png
-1,,,PORT NECHES,,,,,0,No,29.978139876000000,-93.952423256000003,,img/substations.png
-1,,,PORT NECHES,,,,,0,No,29.978597823000001,-93.947604648999999,,img/substations.png
-1,,,NEDERLAND,,,,,0,No,29.981041257000001,-94.005294273999993,,img/substations.png
-1,,,CENTRAL GARDENS,,,,,0,No,29.985672090000001,-94.010948283000005,,img/substations.png
-1,,,PORT NECHES,,,,,0,No,29.988070165000000,-93.946863527999994,,img/substations.png
-1,,,FANNETT,,,,,0,No,30.000866786000000,-94.184325838000007,,img/substations.png
-1,,,CENTRAL GARDENS,,,,,0,No,30.014324156000001,-94.052371859000004,,img/substations.png
-1,,,CENTRAL GARDENS,,,,,0,No,30.022809413000001,-94.073954375000000,,img/substations.png
-1,,,CENTRAL GARDENS,,,,,0,No,30.027159068000000,-94.069164520000001,,img/substations.png
-1,,,BEAUMONT,,,,,0,No,30.033343983000002,-94.075831919999999,,img/substations.png
-1,,,BEAUMONT,,,,,0,No,30.036994074999999,-94.133150989000001,,img/substations.png
-1,,,BEAUMONT,,,,,0,No,30.042405077000002,-94.107957896000002,,img/substations.png
-1,,,CHINA,,,,,0,No,30.044337989999999,-94.373731003000003,,img/substations.png
-1,,,BEAUMONT,,,,,0,No,30.051014724000002,-94.093692508999993,,img/substations.png
-1,,,BEAUMONT,,,,,0,No,30.055542669000001,-94.122292610000002,,img/substations.png
-1,,,BEVIL OAKS,,,,,0,No,30.066148054999999,-94.233906607999998,,img/substations.png
-1,,,BEVIL OAKS,,,,,0,No,30.066311250999998,-94.232347505000007,,img/substations.png
-1,,,BEVIL OAKS,,,,,1,Yes,30.068435593000000,-94.225250172000003,,img/substations.png
-1,,,BEVIL OAKS,,,,,0,No,30.069751670999999,-94.231740015000000,,img/substations.png
-1,,,BEVIL OAKS,,,,,0,No,30.069795789000000,-94.233931050999999,,img/substations.png
-1,,,BEAUMONT,,,,,1,Yes,30.070643130000001,-94.155074689000003,,img/substations.png
-1,,,BEAUMONT,,,,,0,No,30.074165614999998,-94.109659273999995,,img/substations.png
-1,,,BEVIL OAKS,,,,,0,No,30.077167762999999,-94.234178055000001,,img/substations.png
-1,,,NOT AVAILABLE,,,,,1,Yes,30.077560779999999,-94.225074109999994,,img/substations.png
-1,,,BEAUMONT,,,,,0,No,30.077918035000000,-94.190517548000003,,img/substations.png
-1,,,BEAUMONT,,,,,0,No,30.082151035999999,-94.133942148000003,,img/substations.png
-1,,,BEAUMONT,,,,,0,No,30.095302767000000,-94.168680647000002,,img/substations.png
-1,,,NOT AVAILABLE,,,,,0,No,30.103216000000000,-94.168220000000005,,img/substations.png
-1,,,BEAUMONT,,,,,0,No,30.104135198000002,-94.142764079000003,,img/substations.png
-1,,,LOEB,,,,,0,No,30.125703313999999,-94.169445482000000,,img/substations.png
-1,,,LOEB,,,,,0,No,30.138317132000001,-94.171377559999996,,img/substations.png